{"type":"FeatureCollection","features":[{"type":"Feature","id":"assur-bb6i-3d76dc1e02af","properties":{"id":"assur-bb6i-3d76dc1e02af","siteId":"assur","siteName":"Aššur","name":"bB6I","locationType":"excavation_area","sourceId":1},"geometry":{"type":"Polygon","coordinates":[[[43.25493209372259,35.458502307723094],[43.25515333420611,35.45850579241418],[43.25515675289105,35.45832553723564],[43.25493644824839,35.45832234422472],[43.25493209372259,35.458502307723094]]]}},{"type":"Feature","id":"assur-bc5ii-310134341079","properties":{"id":"assur-bc5ii-310134341079","siteId":"assur","siteName":"Aššur","name":"bC5II","locationType":"excavation_area","sourceId":2},"geometry":{"type":"Polygon","coordinates":[[[43.25513793102577,35.45922627822807],[43.25535733802575,35.45922976288782],[43.255361616156655,35.45904968045257],[43.25514117782156,35.45904653802916],[43.25513793102577,35.45922627822807]]]}},{"type":"Feature","id":"assur-bc5iii-9496f1c01d5b","properties":{"id":"assur-bc5iii-9496f1c01d5b","siteId":"assur","siteName":"Aššur","name":"bC5III","locationType":"excavation_area","sourceId":3},"geometry":{"type":"Polygon","coordinates":[[[43.25514117782156,35.45904653802916],[43.255361616156655,35.45904968045257],[43.255365388169416,35.45886946927235],[43.25514507397649,35.45886636184424],[43.25514117782156,35.45904653802916]]]}},{"type":"Feature","id":"assur-bd5i-1106b4b8fc7c","properties":{"id":"assur-bd5i-1106b4b8fc7c","siteId":"assur","siteName":"Aššur","name":"bD5I","locationType":"excavation_area","sourceId":4},"geometry":{"type":"Polygon","coordinates":[[[43.255353771325176,35.4594100627107],[43.2555740186723,35.45941340735417],[43.255577910350986,35.45923315603134],[43.25535760011208,35.45922997101697],[43.255353771325176,35.4594100627107]]]}},{"type":"Feature","id":"assur-bd8ii-66e6a0a429d8","properties":{"id":"assur-bd8ii-66e6a0a429d8","siteId":"assur","siteName":"Aššur","name":"bD8II","locationType":"excavation_area","sourceId":5},"geometry":{"type":"Polygon","coordinates":[[[43.25541626938424,35.45652596425236],[43.25563629237385,35.456529385897],[43.25564019594973,35.45634913729036],[43.25541988402736,35.45634595129579],[43.25541626938424,35.45652596425236]]]}},{"type":"Feature","id":"assur-be4v-797c28d39cb5","properties":{"id":"assur-be4v-797c28d39cb5","siteId":"assur","siteName":"Aššur","name":"bE4V","locationType":"excavation_area","sourceId":6},"geometry":{"type":"Polygon","coordinates":[[[43.25557083916409,35.459594330278556],[43.25579099699043,35.459596456650274],[43.255794477746576,35.45941660084397],[43.2555740186723,35.45941340735417],[43.25557083916409,35.459594330278556]]]}},{"type":"Feature","id":"assur-be5i-f5ecbd35972a","properties":{"id":"assur-be5i-f5ecbd35972a","siteId":"assur","siteName":"Aššur","name":"bE5I","locationType":"excavation_area","sourceId":7},"geometry":{"type":"Polygon","coordinates":[[[43.2555740186723,35.45941340735417],[43.255794477746576,35.45941660084397],[43.25579822023936,35.459236340401624],[43.255577910350986,35.45923315603134],[43.2555740186723,35.45941340735417]]]}},{"type":"Feature","id":"assur-be7i-38ce66f15dcd","properties":{"id":"assur-be7i-38ce66f15dcd","siteId":"assur","siteName":"Aššur","name":"bE7I","locationType":"excavation_area","sourceId":8},"geometry":{"type":"Polygon","coordinates":[[[43.2556129371123,35.45761089178142],[43.255833246132674,35.45761407826055],[43.25583713808294,35.45743382716102],[43.25561683193047,35.45743064287146],[43.2556129371123,35.45761089178142]]]}},{"type":"Feature","id":"assur-be8i-6f4ff2e5c4aa","properties":{"id":"assur-be8i-6f4ff2e5c4aa","siteId":"assur","siteName":"Aššur","name":"bE8I","locationType":"excavation_area","sourceId":9},"geometry":{"type":"Polygon","coordinates":[[[43.2556323941091,35.45670964268028],[43.255852703732955,35.4567128214987],[43.25585659523506,35.45653257015035],[43.25563629237385,35.456529385897],[43.2556323941091,35.45670964268028]]]}},{"type":"Feature","id":"assur-c6-1047f1e15a68","properties":{"id":"assur-c6-1047f1e15a68","siteId":"assur","siteName":"Aššur","name":"c6","locationType":"excavation_area","sourceId":10},"geometry":{"type":"Polygon","coordinates":[[[43.25581378932304,35.45851533540177],[43.25691532981373,35.45853125080102],[43.256934776031386,35.45762999346481],[43.255833246132674,35.45761407826055],[43.25581378932304,35.45851533540177]]]}},{"type":"Feature","id":"assur-cc9i-af66f2996084","properties":{"id":"assur-cc9i-af66f2996084","siteId":"assur","siteName":"Aššur","name":"cC9I","locationType":"excavation_area","sourceId":11},"geometry":{"type":"Polygon","coordinates":[[[43.256312778471866,35.45581826300249],[43.25653306344252,35.45582111411779],[43.25653695333961,35.45564086252094],[43.256316652676446,35.4556376797153],[43.256312778471866,35.45581826300249]]]}},{"type":"Feature","id":"assur-cd6i-18c98d0c1647","properties":{"id":"assur-cd6i-18c98d0c1647","siteId":"assur","siteName":"Aššur","name":"cD6I","locationType":"excavation_area","sourceId":12},"geometry":{"type":"Polygon","coordinates":[[[43.256692680660485,35.45852794101044],[43.25669826247438,35.45834835065103],[43.25647860301546,35.458344634493734],[43.2564747125429,35.45852488585644],[43.256692680660485,35.45852794101044]]]}},{"type":"Feature","id":"assur-cd9i-70cce66085df","properties":{"id":"assur-cd9i-70cce66085df","siteId":"assur","siteName":"Aššur","name":"cD9I","locationType":"excavation_area","sourceId":13},"geometry":{"type":"Polygon","coordinates":[[[43.25653306344252,35.45582111411779],[43.25675336448944,35.455824296786204],[43.256757254452275,35.45564404490919],[43.25653695333961,35.45564086252094],[43.25653306344252,35.45582111411779]]]}},{"type":"Feature","id":"assur-cd9ii-35f1792f2c59","properties":{"id":"assur-cd9ii-35f1792f2c59","siteId":"assur","siteName":"Aššur","name":"cD9II","locationType":"excavation_area","sourceId":14},"geometry":{"type":"Polygon","coordinates":[[[43.25653695333961,35.45564086252094],[43.256757254452275,35.45564404490919],[43.25676123912606,35.4554637726475],[43.256540866497254,35.45546068227187],[43.25653695333961,35.45564086252094]]]}},{"type":"Feature","id":"assur-ce6iii-01ed729cc729","properties":{"id":"assur-ce6iii-01ed729cc729","siteId":"assur","siteName":"Aššur","name":"cE6III","locationType":"excavation_area","sourceId":15},"geometry":{"type":"Polygon","coordinates":[[[43.256702711845136,35.458167606033875],[43.256923108284774,35.458170747999105],[43.25692699721884,35.457990496646936],[43.25670669026767,35.457987314352415],[43.256702711845136,35.458167606033875]]]}},{"type":"Feature","id":"assur-ce6iv-d9f48276e9ab","properties":{"id":"assur-ce6iv-d9f48276e9ab","siteId":"assur","siteName":"Aššur","name":"cE6IV","locationType":"excavation_area","sourceId":16},"geometry":{"type":"Polygon","coordinates":[[[43.25670669026767,35.457987314352415],[43.25692699721884,35.457990496646936],[43.25693088669933,35.45781024308405],[43.25671058356142,35.45780706246713],[43.25670669026767,35.457987314352415]]]}},{"type":"Feature","id":"assur-da5iii-6a62aeabdf81","properties":{"id":"assur-da5iii-6a62aeabdf81","siteId":"assur","siteName":"Aššur","name":"dA5III","locationType":"excavation_area","sourceId":17},"geometry":{"type":"Polygon","coordinates":[[[43.25690324302368,35.459071767476416],[43.25712378762371,35.45907554369719],[43.25712786488404,35.45889492551069],[43.256907550777946,35.45889175387061],[43.25690324302368,35.459071767476416]]]}},{"type":"Feature","id":"assur-da5iv-a4ab08f22278","properties":{"id":"assur-da5iv-a4ab08f22278","siteId":"assur","siteName":"Aššur","name":"dA5IV","locationType":"excavation_area","sourceId":18},"geometry":{"type":"Polygon","coordinates":[[[43.256907550777946,35.45889175387061],[43.25712786488404,35.45889492551069],[43.257131749001644,35.458714684483134],[43.25691144015058,35.45871150266177],[43.256907550777946,35.45889175387061]]]}},{"type":"Feature","id":"assur-da6ii-016b9bbe05f4","properties":{"id":"assur-da6ii-016b9bbe05f4","siteId":"assur","siteName":"Aššur","name":"dA6II","locationType":"excavation_area","sourceId":19},"geometry":{"type":"Polygon","coordinates":[[[43.256919211134566,35.458350981877935],[43.2571395269208,35.45835418198354],[43.25714341547384,35.458173930061434],[43.256923108284774,35.458170747999105],[43.256919211134566,35.458350981877935]]]}},{"type":"Feature","id":"assur-da6iv-e2f748bf874e","properties":{"id":"assur-da6iv-e2f748bf874e","siteId":"assur","siteName":"Aššur","name":"dA6IV","locationType":"excavation_area","sourceId":20},"geometry":{"type":"Polygon","coordinates":[[[43.25692699721884,35.457990496646936],[43.257147302491774,35.457993680997006],[43.257151192924795,35.457813426903066],[43.25693088669933,35.45781024308405],[43.25692699721884,35.457990496646936]]]}},{"type":"Feature","id":"assur-da8i-6b5ce207f9c1","properties":{"id":"assur-da8i-6b5ce207f9c1","siteId":"assur","siteName":"Aššur","name":"dA8I","locationType":"excavation_area","sourceId":21},"geometry":{"type":"Polygon","coordinates":[[[43.256954285352734,35.456728754239506],[43.257174283312786,35.45673203075477],[43.25717834998193,35.45655171419957],[43.256958042601404,35.456548473682716],[43.256954285352734,35.456728754239506]]]}},{"type":"Feature","id":"assur-da9iii-d31b8edb8af6","properties":{"id":"assur-da9iii-d31b8edb8af6","siteId":"assur","siteName":"Aššur","name":"dA9III","locationType":"excavation_area","sourceId":22},"geometry":{"type":"Polygon","coordinates":[[[43.25698147015186,35.45546692588353],[43.25720174299887,35.4554701574424],[43.25720563078435,35.45528990585225],[43.25698533134648,35.455286724146404],[43.25698147015186,35.45546692588353]]]}},{"type":"Feature","id":"assur-db5iv-3f293e1fa0bd","properties":{"id":"assur-db5iv-3f293e1fa0bd","siteId":"assur","siteName":"Aššur","name":"dB5IV","locationType":"excavation_area","sourceId":23},"geometry":{"type":"Polygon","coordinates":[[[43.25712786488404,35.45889492551069],[43.257348169951065,35.45889811737574],[43.257352057936245,35.45871786605652],[43.257131749001644,35.45871468448313],[43.25712786488404,35.45889492551069]]]}},{"type":"Feature","id":"assur-dc9v-2d4f68a5e8c3","properties":{"id":"assur-dc9v-2d4f68a5e8c3","siteId":"assur","siteName":"Aššur","name":"dC9V","locationType":"excavation_area","sourceId":24},"geometry":{"type":"Polygon","coordinates":[[[43.25742982135415,35.45511283611731],[43.257650117950654,35.4551160160905],[43.2576540047715,35.4549357638894],[43.25743370639941,35.454932583508565],[43.25742982135415,35.45511283611731]]]}},{"type":"Feature","id":"assur-dd6ii-08e487e4fda3","properties":{"id":"assur-dd6ii-08e487e4fda3","siteId":"assur","siteName":"Aššur","name":"dD6II","locationType":"excavation_area","sourceId":25},"geometry":{"type":"Polygon","coordinates":[[[43.25758013286551,35.45836062746219],[43.25758404896701,35.458180357378716],[43.25736372280276,35.458177111578685],[43.25735978856304,35.45835728848495],[43.25758013286551,35.45836062746219]]]}},{"type":"Feature","id":"assur-dd9iv-ab130cd33b86","properties":{"id":"assur-dd9iv-ab130cd33b86","siteId":"assur","siteName":"Aššur","name":"dD9IV","locationType":"excavation_area","sourceId":26},"geometry":{"type":"Polygon","coordinates":[[[43.25764623106447,35.45529634567066],[43.25786653019217,35.455299447961025],[43.25787042044541,35.45511919956114],[43.257650117950654,35.4551160160905],[43.25764623106447,35.45529634567066]]]}},{"type":"Feature","id":"assur-de5iv-bde9abf49c29","properties":{"id":"assur-de5iv-bde9abf49c29","siteId":"assur","siteName":"Aššur","name":"dE5IV","locationType":"excavation_area","sourceId":27},"geometry":{"type":"Polygon","coordinates":[[[43.25778879882113,35.458904504126195],[43.258009107065774,35.45890766169712],[43.258012983612865,35.4587274060116],[43.257792675921415,35.45872422804541],[43.25778879882113,35.458904504126195]]]}},{"type":"Feature","id":"assur-de5v-b4930efd61c1","properties":{"id":"assur-de5v-b4930efd61c1","siteId":"assur","siteName":"Aššur","name":"dE5V","locationType":"excavation_area","sourceId":28},"geometry":{"type":"Polygon","coordinates":[[[43.257792675921415,35.45872422804541],[43.258012983612865,35.4587274060116],[43.258016872098985,35.458547158221315],[43.25779656602178,35.45854398351399],[43.257792675921415,35.45872422804541]]]}},{"type":"Feature","id":"assur-de7iv-fb89af1923be","properties":{"id":"assur-de7iv-fb89af1923be","siteId":"assur","siteName":"Aššur","name":"dE7IV","locationType":"excavation_area","sourceId":29},"geometry":{"type":"Polygon","coordinates":[[[43.257827913620304,35.45710226504771],[43.25804712443998,35.45710641756359],[43.25805190374565,35.456924917815016],[43.25783155120294,35.456921727724016],[43.257827913620304,35.45710226504771]]]}},{"type":"Feature","id":"assur-de9v-d6499ffb6a89","properties":{"id":"assur-de9v-d6499ffb6a89","siteId":"assur","siteName":"Aššur","name":"dE9V","locationType":"excavation_area","sourceId":30},"geometry":{"type":"Polygon","coordinates":[[[43.25787042044541,35.45511919956114],[43.25809171801688,35.455122258337965],[43.258094605514074,35.45494212210131],[43.257874304415296,35.4549389447735],[43.25787042044541,35.45511919956114]]]}},{"type":"Feature","id":"assur-ea5v-d293ab969788","properties":{"id":"assur-ea5v-d293ab969788","siteId":"assur","siteName":"Aššur","name":"eA5V","locationType":"excavation_area","sourceId":31},"geometry":{"type":"Polygon","coordinates":[[[43.258012983612865,35.4587274060116],[43.25823326926825,35.45873058870992],[43.25823718066529,35.458550336195174],[43.258016872098985,35.458547158221315],[43.258012983612865,35.4587274060116]]]}},{"type":"Feature","id":"assur-ea6i-a66d4d602381","properties":{"id":"assur-ea6i-a66d4d602381","siteId":"assur","siteName":"Aššur","name":"eA6I","locationType":"excavation_area","sourceId":32},"geometry":{"type":"Polygon","coordinates":[[[43.258016872098985,35.458547158221315],[43.25823718066529,35.458550336195174],[43.258241066910806,35.45837008521959],[43.25802075901852,35.45836690523928],[43.258016872098985,35.458547158221315]]]}},{"type":"Feature","id":"assur-ea6ii-2f294f57d786","properties":{"id":"assur-ea6ii-2f294f57d786","siteId":"assur","siteName":"Aššur","name":"eA6II","locationType":"excavation_area","sourceId":33},"geometry":{"type":"Polygon","coordinates":[[[43.25802075901852,35.45836690523928],[43.258241066910806,35.45837008521959],[43.25824495329976,35.45818983362813],[43.2580246451522,35.45818665275825],[43.25802075901852,35.45836690523928]]]}},{"type":"Feature","id":"assur-ea7ii-8e7d7e44b6f4","properties":{"id":"assur-ea7ii-8e7d7e44b6f4","siteId":"assur","siteName":"Aššur","name":"eA7II","locationType":"excavation_area","sourceId":34},"geometry":{"type":"Polygon","coordinates":[[[43.2580401925846,35.457465647364515],[43.25826049825984,35.45746882732272],[43.25826438441089,35.457288575624275],[43.25804407923328,35.457285395804334],[43.2580401925846,35.457465647364515]]]}},{"type":"Feature","id":"assur-ea7iii-c01b12def1aa","properties":{"id":"assur-ea7iii-c01b12def1aa","siteId":"assur","siteName":"Aššur","name":"eA7III","locationType":"excavation_area","sourceId":43},"geometry":{"type":"Polygon","coordinates":[[[43.25804407923328,35.457285395804334],[43.25826438441089,35.457288575624275],[43.25826827053863,35.457108323995854],[43.25804712443998,35.45710641756359],[43.25804407923328,35.457285395804334]]]}},{"type":"Feature","id":"assur-ea9i-5e10d62f21ea","properties":{"id":"assur-ea9i-5e10d62f21ea","siteId":"assur","siteName":"Aššur","name":"eA9I","locationType":"excavation_area","sourceId":35},"geometry":{"type":"Polygon","coordinates":[[[43.25807516718749,35.45584338070971],[43.25829549208588,35.4558465628202],[43.258299358185255,35.45566631070831],[43.25807905754192,35.45566313119076],[43.25807516718749,35.45584338070971]]]}},{"type":"Feature","id":"assur-eb5iii-36f55ad7d8f3","properties":{"id":"assur-eb5iii-36f55ad7d8f3","siteId":"assur","siteName":"Aššur","name":"eB5III","locationType":"excavation_area","sourceId":36},"geometry":{"type":"Polygon","coordinates":[[[43.25822552121437,35.45909109158406],[43.258445831349036,35.45909427112306],[43.25844971733289,35.45891401953731],[43.2582294076985,35.45891083994051],[43.25822552121437,35.45909109158406]]]}},{"type":"Feature","id":"assur-eb5v-71efa0213895","properties":{"id":"assur-eb5v-71efa0213895","siteId":"assur","siteName":"Aššur","name":"eB5V","locationType":"excavation_area","sourceId":37},"geometry":{"type":"Polygon","coordinates":[[[43.25823326926825,35.45873058870992],[43.258453603019085,35.45873376697811],[43.25845748922913,35.45855351630673],[43.25823718066529,35.458550336195174],[43.25823326926825,35.45873058870992]]]}},{"type":"Feature","id":"assur-eb6i-a69f84fae394","properties":{"id":"assur-eb6i-a69f84fae394","siteId":"assur","siteName":"Aššur","name":"eB6I","locationType":"excavation_area","sourceId":38},"geometry":{"type":"Polygon","coordinates":[[[43.25823718066529,35.458550336195174],[43.25845748922913,35.45855351630673],[43.258461375322426,35.45837326444651],[43.258241066910806,35.45837008521959],[43.25823718066529,35.458550336195174]]]}},{"type":"Feature","id":"assur-eb7ii-f72a9729f147","properties":{"id":"assur-eb7ii-f72a9729f147","siteId":"assur","siteName":"Aššur","name":"eB7II","locationType":"excavation_area","sourceId":39},"geometry":{"type":"Polygon","coordinates":[[[43.25826049825984,35.45746882732272],[43.25848080394954,35.45747200665476],[43.258484688854516,35.457291754277286],[43.25826438441089,35.457288575624275],[43.25826049825984,35.45746882732272]]]}},{"type":"Feature","id":"assur-ec9i-e68eedba1579","properties":{"id":"assur-ec9i-e68eedba1579","siteId":"assur","siteName":"Aššur","name":"eC9I","locationType":"excavation_area","sourceId":40},"geometry":{"type":"Polygon","coordinates":[[[43.258515777950535,35.45584974676686],[43.258736075299524,35.45585292038681],[43.258739960006054,35.45567266878082],[43.2585196591243,35.4556694900472],[43.258515777950535,35.45584974676686]]]}},{"type":"Feature","id":"assur-ed10i-122e56db4bf8","properties":{"id":"assur-ed10i-122e56db4bf8","siteId":"assur","siteName":"Aššur","name":"eD10I","locationType":"excavation_area","sourceId":41},"geometry":{"type":"Polygon","coordinates":[[[43.25875549905875,35.45495166192092],[43.258975797966045,35.4549548403226],[43.25897968230653,35.45477458846872],[43.25875938376886,35.45477141018693],[43.25875549905875,35.45495166192092]]]}},{"type":"Feature","id":"assur-ed5iii-6a03df7cfbfc","properties":{"id":"assur-ed5iii-6a03df7cfbfc","siteId":"assur","siteName":"Aššur","name":"eD5III","locationType":"excavation_area","sourceId":44},"geometry":{"type":"Polygon","coordinates":[[[43.25866612885614,35.45909739350758],[43.25888644900494,35.459100626810404],[43.258890335376954,35.45892037901182],[43.25867002700923,35.458917198727065],[43.25866612885614,35.45909739350758]]]}},{"type":"Feature","id":"assur-ed6v-57cae57f5031","properties":{"id":"assur-ed6v-57cae57f5031","siteId":"assur","siteName":"Aššur","name":"eD6V","locationType":"excavation_area","sourceId":42},"geometry":{"type":"Polygon","coordinates":[[[43.25869332090974,35.45783570710243],[43.25891364461989,35.45783887384847],[43.25891753108024,35.457658616158625],[43.258697224461116,35.45765543731656],[43.25869332090974,35.45783570710243]]]}},{"type":"Feature","id":"assur-ee5ii-ab93b4168d31","properties":{"id":"assur-ee5ii-ab93b4168d31","siteId":"assur","siteName":"Aššur","name":"eE5II","locationType":"excavation_area","sourceId":45},"geometry":{"type":"Polygon","coordinates":[[[43.2588825664583,35.45928088072909],[43.259102877444754,35.45928405945795],[43.25910676205423,35.4591038078289],[43.25888644900494,35.459100626810404],[43.2588825664583,35.45928088072909]]]}},{"type":"Feature","id":"assur-ee5iii-43ee169f4603","properties":{"id":"assur-ee5iii-43ee169f4603","siteId":"assur","siteName":"Aššur","name":"eE5III","locationType":"excavation_area","sourceId":46},"geometry":{"type":"Polygon","coordinates":[[[43.25888644900494,35.459100626810404],[43.25910676205423,35.4591038078289],[43.259110648710255,35.4589235617494],[43.258890335376954,35.45892037901182],[43.25888644900494,35.459100626810404]]]}},{"type":"Feature","id":"assur-ee5iv-898e94441cbf","properties":{"id":"assur-ee5iv-898e94441cbf","siteId":"assur","siteName":"Aššur","name":"eE5IV","locationType":"excavation_area","sourceId":47},"geometry":{"type":"Polygon","coordinates":[[[43.258890335376954,35.45892037901182],[43.259110648710255,35.4589235617494],[43.259114530942014,35.45874330428658],[43.25889422206526,35.458740125611044],[43.258890335376954,35.45892037901182]]]}},{"type":"Feature","id":"assur-ee5v-302a510c01d2","properties":{"id":"assur-ee5v-302a510c01d2","siteId":"assur","siteName":"Aššur","name":"eE5V","locationType":"excavation_area","sourceId":48},"geometry":{"type":"Polygon","coordinates":[[[43.25889422206526,35.458740125611044],[43.259114530942014,35.45874330428658],[43.25911841584647,35.45856305233346],[43.258898115432466,35.45855987749336],[43.25889422206526,35.458740125611044]]]}},{"type":"Feature","id":"assur-ee6v-64ea5b739a46","properties":{"id":"assur-ee6v-64ea5b739a46","siteId":"assur","siteName":"Aššur","name":"eE6V","locationType":"excavation_area","sourceId":49},"geometry":{"type":"Polygon","coordinates":[[[43.25891364461989,35.45783887384847],[43.259133997584826,35.45784203618738],[43.25913783987526,35.45766179560199],[43.25891753108024,35.457658616158625],[43.25891364461989,35.45783887384847]]]}},{"type":"Feature","id":"assur-ee6v-7i-9d2184703a67","properties":{"id":"assur-ee6v-7i-9d2184703a67","siteId":"assur","siteName":"Aššur","name":"eE6V/7I","locationType":"excavation_area","sourceId":50},"geometry":{"type":"Polygon","coordinates":[[[43.25891364461989,35.45783887384847],[43.259133997584826,35.45784203618738],[43.25914172083281,35.45748154225547],[43.25892141650279,35.45747836340428],[43.25891364461989,35.45783887384847]]]}},{"type":"Feature","id":"assur-ee7i-a5f5979278de","properties":{"id":"assur-ee7i-a5f5979278de","siteId":"assur","siteName":"Aššur","name":"eE7I","locationType":"excavation_area","sourceId":51},"geometry":{"type":"Polygon","coordinates":[[[43.25891753108024,35.457658616158625],[43.25913783987526,35.45766179560199],[43.25914172083281,35.45748154225547],[43.25892141650279,35.45747836340428],[43.25891753108024,35.457658616158625]]]}},{"type":"Feature","id":"assur-fa6v-c87b4cbab63d","properties":{"id":"assur-fa6v-c87b4cbab63d","siteId":"assur","siteName":"Aššur","name":"fA6V","locationType":"excavation_area","sourceId":52},"geometry":{"type":"Polygon","coordinates":[[[43.259133997584826,35.45784203618738],[43.25935425964588,35.45784522380246],[43.25935814339379,35.45766497211469],[43.25913783987526,35.45766179560199],[43.259133997584826,35.45784203618738]]]}},{"type":"Feature","id":"assur-fb5ii-c2ef37047215","properties":{"id":"assur-fb5ii-c2ef37047215","siteId":"assur","siteName":"Aššur","name":"fB5II","locationType":"excavation_area","sourceId":54},"geometry":{"type":"Polygon","coordinates":[[[43.25932335513114,35.45928737629906],[43.25954358679559,35.45929030582831],[43.25954738008219,35.45911016857098],[43.25932707723506,35.45910699185558],[43.25932335513114,35.45928737629906]]]}},{"type":"Feature","id":"assur-fc5iii-6eb6aba7b1e1","properties":{"id":"assur-fc5iii-6eb6aba7b1e1","siteId":"assur","siteName":"Aššur","name":"fC5III","locationType":"excavation_area","sourceId":55},"geometry":{"type":"Polygon","coordinates":[[[43.25954738008219,35.45911016857098],[43.25976769303182,35.459113340355195],[43.259771576211506,35.458933088685654],[43.25955126539109,35.45892991087248],[43.25954738008219,35.45911016857098]]]}},{"type":"Feature","id":"assur-fc8i-713e9a4a2d5d","properties":{"id":"assur-fc8i-713e9a4a2d5d","siteId":"assur","siteName":"Aššur","name":"fC8I","locationType":"excavation_area","sourceId":56},"geometry":{"type":"Polygon","coordinates":[[[43.25959786541321,35.45676688938003],[43.25981816957692,35.45677006762937],[43.25982205220136,35.456589815919074],[43.25960174871637,35.45658663900765],[43.25959786541321,35.45676688938003]]]}},{"type":"Feature","id":"assur-fd8i-554d058cd5c7","properties":{"id":"assur-fd8i-554d058cd5c7","siteId":"assur","siteName":"Aššur","name":"fD8I","locationType":"excavation_area","sourceId":57},"geometry":{"type":"Polygon","coordinates":[[[43.25981816957692,35.456770067629364],[43.26003847448191,35.45677324474314],[43.260042356180286,35.45659299129654],[43.25982205220136,35.456589815919074],[43.25981816957692,35.456770067629364]]]}},{"type":"Feature","id":"assur-fe10i-3c7ed857e189","properties":{"id":"assur-fe10i-3c7ed857e189","siteId":"assur","siteName":"Aššur","name":"fE10I","locationType":"excavation_area","sourceId":59},"geometry":{"type":"Polygon","coordinates":[[[43.2600773359183,35.454970713830164],[43.260297592137896,35.45497390181526],[43.26030147341548,35.45479364992589],[43.26008117662149,35.45479047686415],[43.2600773359183,35.454970713830164]]]}},{"type":"Feature","id":"assur-fe5ii-3e9fb1eb128a","properties":{"id":"assur-fe5ii-3e9fb1eb128a","siteId":"assur","siteName":"Aššur","name":"fE5II","locationType":"excavation_area","sourceId":60},"geometry":{"type":"Polygon","coordinates":[[[43.25998412077436,35.45929676878167],[43.260204431650784,35.45929994538559],[43.260208316030095,35.459119692957536],[43.259988003045564,35.45911651720095],[43.25998412077436,35.45929676878167]]]}},{"type":"Feature","id":"assur-fe5iii-6bff491dc11f","properties":{"id":"assur-fe5iii-6bff491dc11f","siteId":"assur","siteName":"Aššur","name":"fE5III","locationType":"excavation_area","sourceId":58},"geometry":{"type":"Polygon","coordinates":[[[43.259988003045564,35.45911651720095],[43.260208316030095,35.459119692957536],[43.260212195739264,35.458939441777645],[43.259991885776586,35.45893626537622],[43.259988003045564,35.45911651720095]]]}},{"type":"Feature","id":"assur-fe9v-51de8f60bedc","properties":{"id":"assur-fe9v-51de8f60bedc","siteId":"assur","siteName":"Aššur","name":"fE9V","locationType":"excavation_area","sourceId":53},"geometry":{"type":"Polygon","coordinates":[[[43.26007344246849,35.45515102257925],[43.2602937134775,35.45515415463361],[43.260297592137896,35.45497390181526],[43.2600773359183,35.454970713830164],[43.26007344246849,35.45515102257925]]]}},{"type":"Feature","id":"assur-g4-35f877be9450","properties":{"id":"assur-g4-35f877be9450","siteId":"assur","siteName":"Aššur","name":"g4","locationType":"excavation_area","sourceId":61},"geometry":{"type":"Polygon","coordinates":[[[43.260181138478366,35.460381455755524],[43.261282708805794,35.46039733113815],[43.2613021075719,35.45949607503633],[43.26020055337673,35.459480195397816],[43.260181138478366,35.460381455755524]]]}},{"type":"Feature","id":"assur-ga10i-a13746659919","properties":{"id":"assur-ga10i-a13746659919","siteId":"assur","siteName":"Aššur","name":"gA10I","locationType":"excavation_area","sourceId":62},"geometry":{"type":"Polygon","coordinates":[[[43.260297592137896,35.45497390181526],[43.260517899434,35.454977086281595],[43.26052177451445,35.45479682127767],[43.26030147341548,35.45479364992589],[43.260297592137896,35.45497390181526]]]}},{"type":"Feature","id":"assur-ga4i-1423b39dd202","properties":{"id":"assur-ga4i-1423b39dd202","siteId":"assur","siteName":"Aššur","name":"gA4I","locationType":"excavation_area","sourceId":63},"geometry":{"type":"Polygon","coordinates":[[[43.26018113847836,35.460381455755524],[43.260401456771554,35.46038462736601],[43.26040533392499,35.460204380005706],[43.26018502051867,35.460201203976624],[43.26018113847836,35.460381455755524]]]}},{"type":"Feature","id":"assur-ga4ii-40b5cc297561","properties":{"id":"assur-ga4ii-40b5cc297561","siteId":"assur","siteName":"Aššur","name":"gA4II","locationType":"excavation_area","sourceId":64},"geometry":{"type":"Polygon","coordinates":[[[43.26018502051867,35.460201203976624],[43.26040533392499,35.460204380005706],[43.26040921606784,35.46002412845144],[43.26018890284197,35.46002095226154],[43.26018502051867,35.460201203976624]]]}},{"type":"Feature","id":"assur-ga4v-f6ca1aebcd97","properties":{"id":"assur-ga4v-f6ca1aebcd97","siteId":"assur","siteName":"Aššur","name":"gA4V","locationType":"excavation_area","sourceId":65},"geometry":{"type":"Polygon","coordinates":[[[43.260196667150325,35.45966044888649],[43.26041697911807,35.45966362485959],[43.260420860845855,35.459483372945066],[43.26020055337673,35.459480195397816],[43.260196667150325,35.45966044888649]]]}},{"type":"Feature","id":"assur-ga5ii-3088de6caaf3","properties":{"id":"assur-ga5ii-3088de6caaf3","siteId":"assur","siteName":"Aššur","name":"gA5II","locationType":"excavation_area","sourceId":66},"geometry":{"type":"Polygon","coordinates":[[[43.260204431650784,35.45929994538559],[43.260424742736056,35.459303120947986],[43.260428623860506,35.4591228697378],[43.260208316030095,35.459119692957536],[43.260204431650784,35.45929994538559]]]}},{"type":"Feature","id":"assur-ga5iii-21acb7b27aa6","properties":{"id":"assur-ga5iii-21acb7b27aa6","siteId":"assur","siteName":"Aššur","name":"gA5III","locationType":"excavation_area","sourceId":67},"geometry":{"type":"Polygon","coordinates":[[[43.260208316030095,35.459119692957536],[43.260428623860506,35.4591228697378],[43.260432506098795,35.45894261835052],[43.260212195739264,35.45893944177764],[43.260208316030095,35.459119692957536]]]}},{"type":"Feature","id":"assur-gb3v-cbe161c398e8","properties":{"id":"assur-gb3v-cbe161c398e8","siteId":"assur","siteName":"Aššur","name":"gB3V","locationType":"excavation_area","sourceId":68},"geometry":{"type":"Polygon","coordinates":[[[43.26039742561216,35.46056536481796],[43.26061788450905,35.46056806064434],[43.260621766051266,35.46038780761891],[43.260401456771554,35.46038462736601],[43.26039742561216,35.46056536481796]]]}},{"type":"Feature","id":"assur-gb4ii-4e46b9b143ad","properties":{"id":"assur-gb4ii-4e46b9b143ad","siteId":"assur","siteName":"Aššur","name":"gB4II","locationType":"excavation_area","sourceId":69},"geometry":{"type":"Polygon","coordinates":[[[43.26040533392499,35.460204380005706],[43.260625647361344,35.46020755583389],[43.26062952857863,35.46002730404191],[43.26040921606784,35.46002412845144],[43.26040533392499,35.460204380005706]]]}},{"type":"Feature","id":"assur-gb5i-61fb399ff411","properties":{"id":"assur-gb5i-61fb399ff411","siteId":"assur","siteName":"Aššur","name":"gB5I","locationType":"excavation_area","sourceId":70},"geometry":{"type":"Polygon","coordinates":[[[43.260420860845855,35.459483372945066],[43.26064117222418,35.459486548513894],[43.26064505336511,35.45930629698616],[43.260424742736056,35.459303120947986],[43.260420860845855,35.459483372945066]]]}},{"type":"Feature","id":"assur-gb5ii-6ad615e8405b","properties":{"id":"assur-gb5ii-6ad615e8405b","siteId":"assur","siteName":"Aššur","name":"gB5II","locationType":"excavation_area","sourceId":71},"geometry":{"type":"Polygon","coordinates":[[[43.260424742736056,35.459303120947986],[43.26064505336511,35.45930629698616],[43.260648934555334,35.459126045002684],[43.260428623860506,35.4591228697378],[43.260424742736056,35.459303120947986]]]}},{"type":"Feature","id":"assur-gb9i-f02183f4767e","properties":{"id":"assur-gb9i-f02183f4767e","siteId":"assur","siteName":"Aššur","name":"gB9I","locationType":"excavation_area","sourceId":72},"geometry":{"type":"Polygon","coordinates":[[[43.26049848687933,35.45587833679078],[43.260718788530774,35.45588151197089],[43.26072266891596,35.45570126015611],[43.26050236788728,35.45569808489909],[43.26049848687933,35.45587833679078]]]}},{"type":"Feature","id":"assur-gc4i-d54b77ef4c6e","properties":{"id":"assur-gc4i-d54b77ef4c6e","siteId":"assur","siteName":"Aššur","name":"gC4I","locationType":"excavation_area","sourceId":73},"geometry":{"type":"Polygon","coordinates":[[[43.260621766051266,35.46038780761891],[43.26084207974046,35.46039098276863],[43.260845961281944,35.46021072952149],[43.260625647361344,35.46020755583389],[43.260621766051266,35.46038780761891]]]}},{"type":"Feature","id":"assur-gc4v-1985c493b282","properties":{"id":"assur-gc4v-1985c493b282","siteId":"assur","siteName":"Aššur","name":"gC4V","locationType":"excavation_area","sourceId":74},"geometry":{"type":"Polygon","coordinates":[[[43.26063729000288,35.45966680197997],[43.260857602998954,35.45966997591421],[43.26086148302068,35.45948972282761],[43.26064117222418,35.459486548513894],[43.26063729000288,35.45966680197997]]]}},{"type":"Feature","id":"assur-gc5i-9d7eec32dfdd","properties":{"id":"assur-gc5i-9d7eec32dfdd","siteId":"assur","siteName":"Aššur","name":"gC5I","locationType":"excavation_area","sourceId":75},"geometry":{"type":"Polygon","coordinates":[[[43.26064117222418,35.459486548513894],[43.26086148302068,35.45948972282761],[43.260865365222905,35.45930947337377],[43.26064505336511,35.45930629698616],[43.26064117222418,35.459486548513894]]]}},{"type":"Feature","id":"assur-gc5v-2798b87e53dc","properties":{"id":"assur-gc5v-2798b87e53dc","siteId":"assur","siteName":"Aššur","name":"gC5V","locationType":"excavation_area","sourceId":76},"geometry":{"type":"Polygon","coordinates":[[[43.26065669566187,35.45876554296782],[43.26087700604993,35.45876871677615],[43.26088088669045,35.45858846474843],[43.26066057760349,35.45858528957114],[43.26065669566187,35.45876554296782]]]}},{"type":"Feature","id":"assur-gd10i-10d1c2f64360","properties":{"id":"assur-gd10i-10d1c2f64360","siteId":"assur","siteName":"Aššur","name":"gD10I","locationType":"excavation_area","sourceId":79},"geometry":{"type":"Polygon","coordinates":[[[43.26095835063994,35.454983433981255],[43.26117878779244,35.454986600622014],[43.26118266816754,35.45480634960534],[43.26096236754107,35.45480317438095],[43.26095835063994,35.454983433981255]]]}},{"type":"Feature","id":"assur-gd4ii-9be07638fbff","properties":{"id":"assur-gd4ii-9be07638fbff","siteId":"assur","siteName":"Aššur","name":"gD4II","locationType":"excavation_area","sourceId":77},"geometry":{"type":"Polygon","coordinates":[[[43.26084596128194,35.46021072952149],[43.26106627424951,35.46021390599492],[43.2610701546244,35.460033654344585],[43.26084984292681,35.460030474618335],[43.26084596128194,35.46021072952149]]]}},{"type":"Feature","id":"assur-gd5ii-fecfb9950eb0","properties":{"id":"assur-gd5ii-fecfb9950eb0","siteId":"assur","siteName":"Aššur","name":"gD5II","locationType":"excavation_area","sourceId":78},"geometry":{"type":"Polygon","coordinates":[[[43.260865365222905,35.45930947337377],[43.26108567541806,35.459312646951936],[43.261089558192054,35.459132396414596],[43.26086923543089,35.45912917825942],[43.260865365222905,35.45930947337377]]]}},{"type":"Feature","id":"assur-ge9i-f06fc5d649e6","properties":{"id":"assur-ge9i-f06fc5d649e6","siteId":"assur","siteName":"Aššur","name":"gE9I","locationType":"excavation_area","sourceId":80},"geometry":{"type":"Polygon","coordinates":[[[43.261159392185064,35.45588786070325],[43.26137969406042,35.455891035019114],[43.26138357263302,35.455710783294265],[43.26116327133385,35.45570760928212],[43.261159392185064,35.45588786070325]]]}},{"type":"Feature","id":"assur-h4-d61258ca24f6","properties":{"id":"assur-h4-d61258ca24f6","siteId":"assur","siteName":"Aššur","name":"h4","locationType":"excavation_area","sourceId":81},"geometry":{"type":"Polygon","coordinates":[[[43.261282708805794,35.46039733113815],[43.26238427890228,35.460413198850205],[43.26240366549259,35.4595119391731],[43.2613021075719,35.45949607503633],[43.261282708805794,35.46039733113815]]]}},{"type":"Feature","id":"assur-ha3v-5e86c360cff0","properties":{"id":"assur-ha3v-5e86c360cff0","siteId":"assur","siteName":"Aššur","name":"hA3V","locationType":"excavation_area","sourceId":82},"geometry":{"type":"Polygon","coordinates":[[[43.261278828040915,35.460577584229135],[43.261499142564446,35.46058075838726],[43.261503021915104,35.460400506275],[43.261282708805794,35.46039733113815],[43.261278828040915,35.460577584229135]]]}},{"type":"Feature","id":"assur-hb4ii-984bc19a4843","properties":{"id":"assur-hb4ii-984bc19a4843","siteId":"assur","siteName":"Aššur","name":"hB4II","locationType":"excavation_area","sourceId":83},"geometry":{"type":"Polygon","coordinates":[[[43.26150690151071,35.460220254694846],[43.261727214489504,35.460223427885076],[43.26173109476324,35.46004318037314],[43.26151077974991,35.46004000179015],[43.26150690151071,35.460220254694846]]]}},{"type":"Feature","id":"assur-hb4v-dda5f259287d","properties":{"id":"assur-hb4v-dda5f259287d","siteId":"assur","siteName":"Aššur","name":"hB4V","locationType":"excavation_area","sourceId":84},"geometry":{"type":"Polygon","coordinates":[[[43.26151854907104,35.45967949186904],[43.26173885120986,35.45968267285492],[43.26174273143638,35.459502419194344],[43.26152241830722,35.459499247333014],[43.26151854907104,35.45967949186904]]]}},{"type":"Feature","id":"assur-hb5iii-f3a81030678e","properties":{"id":"assur-hb5iii-f3a81030678e","siteId":"assur","siteName":"Aššur","name":"hB5III","locationType":"excavation_area","sourceId":85},"geometry":{"type":"Polygon","coordinates":[[[43.26153017980017,35.45913874620331],[43.26175048732974,35.459141917161475],[43.26175436594806,35.45896166526062],[43.261534055797654,35.45895849169191],[43.26153017980017,35.45913874620331]]]}},{"type":"Feature","id":"assur-hc10iv-e9ba6785720f","properties":{"id":"assur-hc10iv-e9ba6785720f","siteId":"assur","siteName":"Aššur","name":"hC10IV","locationType":"excavation_area","sourceId":86},"geometry":{"type":"Polygon","coordinates":[[[43.261851321771644,35.4544553670405],[43.26207161830198,35.45445853840004],[43.26207549538842,35.45427828644994],[43.26185519798539,35.454275113870025],[43.261851321771644,35.4544553670405]]]}},{"type":"Feature","id":"assur-hc3v-e656693e7ee1","properties":{"id":"assur-hc3v-e656693e7ee1","siteId":"assur","siteName":"Aššur","name":"hC3V","locationType":"excavation_area","sourceId":87},"geometry":{"type":"Polygon","coordinates":[[[43.2617194655506,35.460583930130774],[43.26193977145538,35.460587105631824],[43.261943650209254,35.46040685354769],[43.261723335902154,35.460403680182495],[43.2617194655506,35.460583930130774]]]}},{"type":"Feature","id":"assur-hc4i-88e7d0f8b8c5","properties":{"id":"assur-hc4i-88e7d0f8b8c5","siteId":"assur","siteName":"Aššur","name":"hC4I","locationType":"excavation_area","sourceId":88},"geometry":{"type":"Polygon","coordinates":[[[43.261723335902154,35.460403680182495],[43.261943650209254,35.46040685354768],[43.26194752851611,35.46022660175361],[43.261727214489504,35.460223427885076],[43.261723335902154,35.460403680182495]]]}},{"type":"Feature","id":"assur-hc4iv-f2f64d75d970","properties":{"id":"assur-hc4iv-f2f64d75d970","siteId":"assur","siteName":"Aššur","name":"hC4IV","locationType":"excavation_area","sourceId":89},"geometry":{"type":"Polygon","coordinates":[[[43.26173497252725,35.45986292472333],[43.26195528519416,35.45986609798687],[43.26195916341399,35.459685846079],[43.26173885120986,35.45968267285492],[43.26173497252725,35.45986292472333]]]}},{"type":"Feature","id":"assur-hc4v-478fa3bdc4c8","properties":{"id":"assur-hc4v-478fa3bdc4c8","siteId":"assur","siteName":"Aššur","name":"hC4V","locationType":"excavation_area","sourceId":90},"geometry":{"type":"Polygon","coordinates":[[[43.26173885120986,35.45968267285492],[43.26195916341399,35.459685846079],[43.261963041790935,35.459505593703696],[43.26174273143638,35.459502419194344],[43.26173885120986,35.45968267285492]]]}},{"type":"Feature","id":"assur-hc8i-7c55133a9d29","properties":{"id":"assur-hc8i-7c55133a9d29","siteId":"assur","siteName":"Aššur","name":"hC8I","locationType":"excavation_area","sourceId":91},"geometry":{"type":"Polygon","coordinates":[[[43.261800897378166,35.45679863724824],[43.26202121097784,35.456801814937805],[43.26202508865241,35.456621562924965],[43.26180478494253,35.45661838953555],[43.261800897378166,35.45679863724824]]]}},{"type":"Feature","id":"assur-hd3v-eb5d4942ef7a","properties":{"id":"assur-hd3v-eb5d4942ef7a","siteId":"assur","siteName":"Aššur","name":"hD3V","locationType":"excavation_area","sourceId":92},"geometry":{"type":"Polygon","coordinates":[[[43.26193977145538,35.460587105631824],[43.26216009052244,35.46059027628628],[43.2621639643581,35.46041002645365],[43.261943650209254,35.46040685354768],[43.26193977145538,35.460587105631824]]]}},{"type":"Feature","id":"assur-hd4i-0ed0e29b0f09","properties":{"id":"assur-hd4i-0ed0e29b0f09","siteId":"assur","siteName":"Aššur","name":"hD4I","locationType":"excavation_area","sourceId":93},"geometry":{"type":"Polygon","coordinates":[[[43.261943650209254,35.46040685354768],[43.2621639643581,35.46041002645365],[43.26216783011469,35.46022977150124],[43.26194752851611,35.460226601753604],[43.261943650209254,35.46040685354768]]]}},{"type":"Feature","id":"assur-hd4ii-5f535f7de6ba","properties":{"id":"assur-hd4ii-5f535f7de6ba","siteId":"assur","siteName":"Aššur","name":"hD4II","locationType":"excavation_area","sourceId":94},"geometry":{"type":"Polygon","coordinates":[[[43.26194752851611,35.460226601753604],[43.26216783011469,35.46022977150124],[43.26217172002473,35.46004952275394],[43.26195140687426,35.4600463499061],[43.26194752851611,35.460226601753604]]]}},{"type":"Feature","id":"assur-hd4v-96ead1e90c88","properties":{"id":"assur-hd4v-96ead1e90c88","siteId":"assur","siteName":"Aššur","name":"hD4V","locationType":"excavation_area","sourceId":96},"geometry":{"type":"Polygon","coordinates":[[[43.26195916341399,35.459685846079],[43.26217947518714,35.45968901882742],[43.26218335329661,35.459508766757544],[43.261963041790935,35.459505593703696],[43.26195916341399,35.459685846079]]]}},{"type":"Feature","id":"assur-hd8i-04d1913af44c","properties":{"id":"assur-hd8i-04d1913af44c","siteId":"assur","siteName":"Aššur","name":"hD8I","locationType":"excavation_area","sourceId":97},"geometry":{"type":"Polygon","coordinates":[[[43.26202121097784,35.456801814937805],[43.26224152739023,35.456805170426954],[43.26224628424881,35.456624350247914],[43.26202508865241,35.456621562924965],[43.26202121097784,35.456801814937805]]]}},{"type":"Feature","id":"assur-he4i-030d5af2f188","properties":{"id":"assur-he4i-030d5af2f188","siteId":"assur","siteName":"Aššur","name":"hE4I","locationType":"excavation_area","sourceId":95},"geometry":{"type":"Polygon","coordinates":[[[43.2621639643581,35.46041002645365],[43.26238427890228,35.460413198850205],[43.26238815693613,35.46023294769616],[43.26216783011469,35.46022977150124],[43.2621639643581,35.46041002645365]]]}},{"type":"Feature","id":"assur-he4ii-f0314ef9a16b","properties":{"id":"assur-he4ii-f0314ef9a16b","siteId":"assur","siteName":"Aššur","name":"hE4II","locationType":"excavation_area","sourceId":98},"geometry":{"type":"Polygon","coordinates":[[[43.26216783011469,35.46022977150124],[43.26238815693613,35.46023294769616],[43.26239204149746,35.46005266074182],[43.26217172002473,35.46004952275394],[43.26216783011469,35.46022977150124]]]}},{"type":"Feature","id":"assur-he4iii-484562f8f1ab","properties":{"id":"assur-he4iii-484562f8f1ab","siteId":"assur","siteName":"Aššur","name":"hE4III","locationType":"excavation_area","sourceId":99},"geometry":{"type":"Polygon","coordinates":[[[43.26217172002473,35.46004952275394],[43.26239204149746,35.46005266074182],[43.262395910582356,35.459872443343514],[43.262175598238954,35.45986927490772],[43.26217172002473,35.46004952275394]]]}},{"type":"Feature","id":"assur-he8i-e1127cc93dfe","properties":{"id":"assur-he8i-e1127cc93dfe","siteId":"assur","siteName":"Aššur","name":"hE8I","locationType":"excavation_area","sourceId":100},"geometry":{"type":"Polygon","coordinates":[[[43.26224152739023,35.456805170426954],[43.26246181232924,35.45680815329642],[43.26246569637445,35.45662790754241],[43.26224628424881,35.456624350247914],[43.26224152739023,35.456805170426954]]]}},{"type":"Feature","id":"assur-i3-4b3b8fad7570","properties":{"id":"assur-i3-4b3b8fad7570","siteId":"assur","siteName":"Aššur","name":"i3","locationType":"excavation_area","sourceId":101},"geometry":{"type":"Polygon","coordinates":[[[43.262364891852094,35.46131446150519],[43.263466474096774,35.46133031524286],[43.2634858522973,35.46042905638021],[43.26238427890228,35.460413198850205],[43.262364891852094,35.46131446150519]]]}},{"type":"Feature","id":"assur-ia3iv-954858445363","properties":{"id":"assur-ia3iv-954858445363","siteId":"assur","siteName":"Aššur","name":"iA3IV","locationType":"excavation_area","sourceId":102},"geometry":{"type":"Polygon","coordinates":[[[43.262376523044274,35.460773702520015],[43.26259683716044,35.46077688047906],[43.26260073563897,35.460596595537126],[43.262380401626885,35.46059345085878],[43.262376523044274,35.460773702520015]]]}},{"type":"Feature","id":"assur-ia4i-43241c493419","properties":{"id":"assur-ia4i-43241c493419","siteId":"assur","siteName":"Aššur","name":"iA4I","locationType":"excavation_area","sourceId":103},"geometry":{"type":"Polygon","coordinates":[[[43.26238427890228,35.460413198850205],[43.2626045926979,35.46041637115631],[43.26260847069998,35.46023611942661],[43.26238815693613,35.46023294769616],[43.26238427890228,35.460413198850205]]]}},{"type":"Feature","id":"assur-ia4ii-4ea6406187c8","properties":{"id":"assur-ia4ii-4ea6406187c8","siteId":"assur","siteName":"Aššur","name":"iA4II","locationType":"excavation_area","sourceId":104},"geometry":{"type":"Polygon","coordinates":[[[43.26238815693613,35.46023294769616],[43.26260847069998,35.460236119426604],[43.26261234644811,35.46005586734787],[43.26239204149746,35.46005266074182],[43.26238815693613,35.46023294769616]]]}},{"type":"Feature","id":"assur-ia4iv-b128914b08d6","properties":{"id":"assur-ia4iv-b128914b08d6","siteId":"assur","siteName":"Aššur","name":"iA4IV","locationType":"excavation_area","sourceId":105},"geometry":{"type":"Polygon","coordinates":[[[43.262395910582356,35.459872443343514],[43.26261622337371,35.45987561533102],[43.262620100063806,35.459695363321316],[43.26239978817236,35.459692191374835],[43.262395910582356,35.459872443343514]]]}},{"type":"Feature","id":"assur-ia4v-bcc63bb63b4d","properties":{"id":"assur-ia4v-bcc63bb63b4d","siteId":"assur","siteName":"Aššur","name":"iA4V","locationType":"excavation_area","sourceId":106},"geometry":{"type":"Polygon","coordinates":[[[43.26239978817236,35.459692191374835],[43.262620100063806,35.459695363321316],[43.26262397682119,35.45951511144418],[43.26240366549259,35.4595119391731],[43.26239978817236,35.459692191374835]]]}},{"type":"Feature","id":"assur-ia8i-6aa9d256700b","properties":{"id":"assur-ia8i-6aa9d256700b","siteId":"assur","siteName":"Aššur","name":"iA8I","locationType":"excavation_area","sourceId":107},"geometry":{"type":"Polygon","coordinates":[[[43.26246181232924,35.45680815329641],[43.26268205785873,35.456811411661576],[43.26268599998322,35.45663107990898],[43.26246569637445,35.45662790754241],[43.26246181232924,35.45680815329641]]]}},{"type":"Feature","id":"assur-ib3ii-5f955c916bd6","properties":{"id":"assur-ib3ii-5f955c916bd6","siteId":"assur","siteName":"Aššur","name":"iB3II","locationType":"excavation_area","sourceId":108},"geometry":{"type":"Polygon","coordinates":[[[43.26258906974302,35.46113740286676],[43.26280940091811,35.46114055079496],[43.26281328029252,35.46096029919549],[43.26259296175831,35.460957126968864],[43.26258906974302,35.46113740286676]]]}},{"type":"Feature","id":"assur-ib3iii-9c0254833076","properties":{"id":"assur-ib3iii-9c0254833076","siteId":"assur","siteName":"Aššur","name":"iB3III","locationType":"excavation_area","sourceId":109},"geometry":{"type":"Polygon","coordinates":[[[43.26259296175831,35.460957126968864],[43.26281328029252,35.46096029919548],[43.26281715402787,35.460780046868464],[43.26259683716044,35.46077688047906],[43.26259296175831,35.460957126968864]]]}},{"type":"Feature","id":"assur-ib3iv-5d5a2ab832b9","properties":{"id":"assur-ib3iv-5d5a2ab832b9","siteId":"assur","siteName":"Aššur","name":"iB3IV","locationType":"excavation_area","sourceId":110},"geometry":{"type":"Polygon","coordinates":[[[43.26259683716044,35.46077688047906],[43.26281715402787,35.460780046868464],[43.2628210304943,35.46059979492444],[43.26260073563897,35.460596595537126],[43.26259683716044,35.46077688047906]]]}},{"type":"Feature","id":"assur-ib4i-69c767eaaa9b","properties":{"id":"assur-ib4i-69c767eaaa9b","siteId":"assur","siteName":"Aššur","name":"iB4I","locationType":"excavation_area","sourceId":111},"geometry":{"type":"Polygon","coordinates":[[[43.2626045926979,35.46041637115631],[43.26282490694786,35.46041954270132],[43.26282878338278,35.46023929099841],[43.26260847069998,35.4602361194266],[43.2626045926979,35.46041637115631]]]}},{"type":"Feature","id":"assur-ib4ii-6d81d4c48c28","properties":{"id":"assur-ib4ii-6d81d4c48c28","siteId":"assur","siteName":"Aššur","name":"iB4II","locationType":"excavation_area","sourceId":112},"geometry":{"type":"Polygon","coordinates":[[[43.26260847069998,35.46023611942659],[43.26282878338278,35.46023929099841],[43.262832659890826,35.4600590396084],[43.26261234644811,35.46005586734787],[43.26260847069998,35.46023611942659]]]}},{"type":"Feature","id":"assur-ib4iii-0a4e3a9fea3c","properties":{"id":"assur-ib4iii-0a4e3a9fea3c","siteId":"assur","siteName":"Aššur","name":"iB4III","locationType":"excavation_area","sourceId":113},"geometry":{"type":"Polygon","coordinates":[[[43.26261234644811,35.46005586734787],[43.262832659890826,35.4600590396084],[43.26283653605098,35.45987878704478],[43.26261622337371,35.45987561533102],[43.26261234644811,35.46005586734787]]]}},{"type":"Feature","id":"assur-ib4iv-a6b663a19751","properties":{"id":"assur-ib4iv-a6b663a19751","siteId":"assur","siteName":"Aššur","name":"iB4IV","locationType":"excavation_area","sourceId":114},"geometry":{"type":"Polygon","coordinates":[[[43.26261622337371,35.45987561533102],[43.26283653605098,35.45987878704478],[43.26284041256241,35.45969853532581],[43.262620100063806,35.459695363321316],[43.26261622337371,35.45987561533102]]]}},{"type":"Feature","id":"assur-ib4v-a8f3256907f1","properties":{"id":"assur-ib4v-a8f3256907f1","siteId":"assur","siteName":"Aššur","name":"iB4V","locationType":"excavation_area","sourceId":115},"geometry":{"type":"Polygon","coordinates":[[[43.262620100063806,35.459695363321316],[43.26284041256241,35.45969853532581],[43.262844289999855,35.45951828304686],[43.26262397682119,35.45951511144418],[43.262620100063806,35.459695363321316]]]}},{"type":"Feature","id":"assur-ib6iii-a1259d123f1e","properties":{"id":"assur-ib6iii-a1259d123f1e","siteId":"assur","siteName":"Aššur","name":"iB6III","locationType":"excavation_area","sourceId":116},"geometry":{"type":"Polygon","coordinates":[[[43.26265111503309,35.45825334912844],[43.26287142139648,35.458256518790805],[43.2628752973451,35.45807626695814],[43.2626549898081,35.45807309541591],[43.26265111503309,35.45825334912844]]]}},{"type":"Feature","id":"assur-ib7i-ee0365a27ee5","properties":{"id":"assur-ib7i-ee0365a27ee5","siteId":"assur","siteName":"Aššur","name":"iB7I","locationType":"excavation_area","sourceId":117},"geometry":{"type":"Polygon","coordinates":[[[43.26266274249105,35.457712591464734],[43.26288304938385,35.45771576288832],[43.26288692530791,35.457535510843734],[43.262666618909435,35.457532339409646],[43.26266274249105,35.457712591464734]]]}},{"type":"Feature","id":"assur-ic3ii-b81d7278c59c","properties":{"id":"assur-ic3ii-b81d7278c59c","siteId":"assur","siteName":"Aššur","name":"iC3II","locationType":"excavation_area","sourceId":118},"geometry":{"type":"Polygon","coordinates":[[[43.26280940091811,35.46114055079496],[43.263029701205944,35.46114371787259],[43.26303355003051,35.4609633933416],[43.26281328029252,35.46096029919547],[43.26280940091811,35.46114055079496]]]}},{"type":"Feature","id":"assur-ic4i-df9fe989b4ff","properties":{"id":"assur-ic4i-df9fe989b4ff","siteId":"assur","siteName":"Aššur","name":"iC4I","locationType":"excavation_area","sourceId":119},"geometry":{"type":"Polygon","coordinates":[[[43.26282490694786,35.46041954270132],[43.263045221218675,35.460422714284526],[43.263049101493266,35.46024246197453],[43.26282878338278,35.46023929099841],[43.26282490694786,35.46041954270132]]]}},{"type":"Feature","id":"assur-ic4ii-12e470b76085","properties":{"id":"assur-ic4ii-12e470b76085","siteId":"assur","siteName":"Aššur","name":"iC4II","locationType":"excavation_area","sourceId":120},"geometry":{"type":"Polygon","coordinates":[[[43.26282878338278,35.46023929099841],[43.263049101493266,35.46024246197453],[43.26305297310496,35.460062210328886],[43.262832659890826,35.4600590396084],[43.26282878338278,35.46023929099841]]]}},{"type":"Feature","id":"assur-ic4iii-6b755722331e","properties":{"id":"assur-ic4iii-6b755722331e","siteId":"assur","siteName":"Aššur","name":"iC4III","locationType":"excavation_area","sourceId":121},"geometry":{"type":"Polygon","coordinates":[[[43.262832659890826,35.4600590396084],[43.26305297310496,35.460062210328886],[43.263056876098254,35.45988202633687],[43.26283653605098,35.45987878704478],[43.262832659890826,35.4600590396084]]]}},{"type":"Feature","id":"assur-ic4iv-c0a218a92708","properties":{"id":"assur-ic4iv-c0a218a92708","siteId":"assur","siteName":"Aššur","name":"iC4IV","locationType":"excavation_area","sourceId":122},"geometry":{"type":"Polygon","coordinates":[[[43.26283653605098,35.45987878704478],[43.263056876098254,35.45988202633687],[43.263060724667284,35.4597017063687],[43.26284041256241,35.45969853532581],[43.26283653605098,35.45987878704478]]]}},{"type":"Feature","id":"assur-ic4v-6332648aea16","properties":{"id":"assur-ic4v-6332648aea16","siteId":"assur","siteName":"Aššur","name":"iC4V","locationType":"excavation_area","sourceId":123},"geometry":{"type":"Polygon","coordinates":[[[43.26284041256241,35.45969853532581],[43.263060724667284,35.4597017063687],[43.26306460044044,35.45952145429577],[43.262844289999855,35.45951828304686],[43.26284041256241,35.45969853532581]]]}},{"type":"Feature","id":"assur-ic5i-5cb3680f11f1","properties":{"id":"assur-ic5i-5cb3680f11f1","siteId":"assur","siteName":"Aššur","name":"iC5I","locationType":"excavation_area","sourceId":125},"geometry":{"type":"Polygon","coordinates":[[[43.262844289999855,35.45951828304686],[43.26306460044044,35.45952145429577],[43.26306847621186,35.45934120226677],[43.26284816498785,35.45933803116236],[43.262844289999855,35.45951828304686]]]}},{"type":"Feature","id":"assur-ic6iii-26ecdd95a8d8","properties":{"id":"assur-ic6iii-26ecdd95a8d8","siteId":"assur","siteName":"Aššur","name":"iC6III","locationType":"excavation_area","sourceId":126},"geometry":{"type":"Polygon","coordinates":[[[43.26287142139648,35.458256518790805],[43.26309172987626,35.458259690036556],[43.26309560540789,35.458079438013954],[43.2628752973451,35.45807626695814],[43.26287142139648,35.458256518790805]]]}},{"type":"Feature","id":"assur-id3iv-5388a6fdd9f3","properties":{"id":"assur-id3iv-5388a6fdd9f3","siteId":"assur","siteName":"Aššur","name":"iD3IV","locationType":"excavation_area","sourceId":127},"geometry":{"type":"Polygon","coordinates":[[[43.263037469140315,35.460783218320856],[43.263257784590095,35.46078638920147],[43.26326166007307,35.46060613719991],[43.263041345273244,35.46060296626453],[43.263037469140315,35.460783218320856]]]}},{"type":"Feature","id":"assur-id3v-b2da9fe54e6d","properties":{"id":"assur-id3v-b2da9fe54e6d","siteId":"assur","siteName":"Aššur","name":"iD3V","locationType":"excavation_area","sourceId":128},"geometry":{"type":"Polygon","coordinates":[[[43.263041345273244,35.46060296626453],[43.26326166007307,35.46060613719991],[43.26326553556614,35.460425885201865],[43.263045221218675,35.460422714284526],[43.263041345273244,35.46060296626453]]]}},{"type":"Feature","id":"assur-id4iv-becfbc958fce","properties":{"id":"assur-id4iv-becfbc958fce","siteId":"assur","siteName":"Aššur","name":"iD4IV","locationType":"excavation_area","sourceId":129},"geometry":{"type":"Polygon","coordinates":[[[43.263056876098254,35.45988202633687],[43.26327716163275,35.459885129124245],[43.26328103705301,35.4597048771782],[43.263060724667284,35.4597017063687],[43.263056876098254,35.45988202633687]]]}},{"type":"Feature","id":"assur-id4v-b45c39108b04","properties":{"id":"assur-id4v-b45c39108b04","siteId":"assur","siteName":"Aššur","name":"iD4V","locationType":"excavation_area","sourceId":130},"geometry":{"type":"Polygon","coordinates":[[[43.263060724667284,35.4597017063687],[43.26328103705301,35.4597048771782],[43.26328491229529,35.45952462511167],[43.26306460044044,35.45952145429577],[43.263060724667284,35.4597017063687]]]}},{"type":"Feature","id":"assur-id5i-9cf249acf23a","properties":{"id":"assur-id5i-9cf249acf23a","siteId":"assur","siteName":"Aššur","name":"iD5I","locationType":"excavation_area","sourceId":131},"geometry":{"type":"Polygon","coordinates":[[[43.26306460044044,35.45952145429577],[43.26328491229529,35.45952462511167],[43.26328878757395,35.459344373056524],[43.26306847621186,35.45934120226677],[43.26306460044044,35.45952145429577]]]}},{"type":"Feature","id":"assur-id8i-d16dd7b3c388","properties":{"id":"assur-id8i-d16dd7b3c388","siteId":"assur","siteName":"Aššur","name":"iD8I","locationType":"excavation_area","sourceId":132},"geometry":{"type":"Polygon","coordinates":[[[43.26312273950123,35.45681765169435],[43.26334303882888,35.456820845183344],[43.26334690897307,35.45664058157287],[43.263126617510984,35.456637415128185],[43.26312273950123,35.45681765169435]]]}},{"type":"Feature","id":"assur-l8-d809790a6828","properties":{"id":"assur-l8-d809790a6828","siteId":"assur","siteName":"Aššur","name":"l8","locationType":"excavation_area","sourceId":133},"geometry":{"type":"Polygon","coordinates":[[[43.26466486625695,35.45683985875571],[43.26576638998763,35.4568556928289],[43.265785735749354,35.45595443085695],[43.26468422421065,35.4559385970502],[43.26466486625695,35.45683985875571]]]}},{"type":"Feature","id":"assur-l9-081650a81622","properties":{"id":"assur-l9-081650a81622","siteId":"assur","siteName":"Aššur","name":"l9","locationType":"excavation_area","sourceId":134},"geometry":{"type":"Polygon","coordinates":[[[43.26468422421065,35.4559385970502],[43.265785735749354,35.45595443085695],[43.265805081423075,35.45505316899148],[43.26470358192582,35.455037335590916],[43.26468422421065,35.4559385970502]]]}},{"type":"Feature","id":"assur-la9ii-a1ccc873746b","properties":{"id":"assur-la9ii-a1ccc873746b","siteId":"assur","siteName":"Aššur","name":"lA9II","locationType":"excavation_area","sourceId":124},"geometry":{"type":"Polygon","coordinates":[[[43.264688086093386,35.455758323133104],[43.26490839136807,35.455761513645655],[43.26491226737367,35.45558125958554],[43.26469196733952,35.4555780927761],[43.264688086093386,35.455758323133104]]]}}]}