{"type":"FeatureCollection","features":[{"type":"Feature","id":"kalhu-1","properties":{"id":"kalhu-1","siteId":"kalhu","siteName":"Kalḫu","name":"Kalhu","locationType":"excavation_area","sourceId":1},"geometry":{"type":"Polygon","coordinates":[[[43.32641193205038,36.109344967029664],[43.32691639762208,36.109525049086166],[43.327514717253635,36.109586656010705],[43.32838286730726,36.10969091377292],[43.32982587347749,36.10987573401129],[43.330465254260226,36.10997051345201],[43.33153871006978,36.110055814850874],[43.332852666907705,36.11007950966746],[43.33366802405266,36.11009846551558],[43.33653057287817,36.11019324468752],[43.33908809600913,36.11029750164457],[43.34151656980779,36.11026906794274],[43.34369867669935,36.11034489112474],[43.349681873014895,36.11041123634895],[43.35003969161808,36.10716499359594],[43.35014527743541,36.10586408932101],[43.350409241978745,36.102444669889564],[43.35040044316061,36.09793379435873],[43.35038724493344,36.09726193967551],[43.350360848479106,36.096280808231526],[43.34927859385144,36.0962914727696],[43.3487770612191,36.09500638551197],[43.348268929473186,36.09401456106115],[43.347892779998936,36.093449322172525],[43.347615617228435,36.09319336360269],[43.34700189966518,36.09292673920599],[43.346170411353675,36.09285741671469],[43.34533892304218,36.09278276165569],[43.344388650686184,36.09292673920599],[43.339115958933085,36.09397190166422],[43.33754536990025,36.094099879785546],[43.33540725709924,36.09437716500015],[43.33399504679241,36.09455846634228],[43.33052391304757,36.095134361948695],[43.329494451328564,36.09550762536539],[43.3285309807454,36.095902216192414],[43.3272639509374,36.09627547596197],[43.326868004122396,36.09668072741865],[43.32680201298656,36.097107305641586],[43.32657764312473,36.09793912651578],[43.32652485021605,36.100082624340075],[43.326260885672724,36.10097839715085],[43.32630048035422,36.10171420289119],[43.325772551267555,36.104198829322705],[43.32535020799823,36.10536113831446],[43.325257820408055,36.106502103809106],[43.32606291226523,36.10883729927285],[43.32641193205038,36.109344967029664]]]}},{"type":"Feature","id":"kalhu-2","properties":{"id":"kalhu-2","siteId":"kalhu","siteName":"Kalḫu","name":"D XII","locationType":"excavation_area","sourceId":2},"geometry":{"type":"Polygon","coordinates":[[[43.329829841073646,36.0966540206053],[43.32985180374854,36.096656020196804],[43.32985365974924,36.09661377881551],[43.329858299750974,36.09661377881551],[43.32985891841788,36.09659828197171],[43.329833553075034,36.096597532124356],[43.329829841073646,36.0966540206053]]]}},{"type":"Feature","id":"kalhu-3","properties":{"id":"kalhu-3","siteId":"kalhu","siteName":"Kalḫu","name":"ZT","locationType":"excavation_area","sourceId":3},"geometry":{"type":"Polygon","coordinates":[[[43.326869425322776,36.1004112886671],[43.327161745432285,36.10038504527883],[43.327165457433686,36.10040229093496],[43.32718680144168,36.1003985418796],[43.327187729442024,36.10038504527883],[43.32725825746844,36.100381296222636],[43.327264753470885,36.100399291690685],[43.327346417501474,36.1003917935795],[43.327346417501474,36.100381296222636],[43.32752552156858,36.100361801127605],[43.32753108957066,36.100377547166275],[43.32761460960196,36.10037154867573],[43.32761182560091,36.10035355320133],[43.327792785668706,36.10033630753449],[43.327792785668706,36.10034980414365],[43.3278781617007,36.10034286838643],[43.3278765377001,36.100329559229024],[43.32805587376729,36.10031325082182],[43.328061905769545,36.100333870646466],[43.32814820980188,36.10032562271726],[43.32813428979668,36.10024201865868],[43.32812245779225,36.10024314337754],[43.32803406575913,36.09962398320601],[43.32674159327491,36.09973533117162],[43.326869425322776,36.1004112886671]]]}},{"type":"Feature","id":"kalhu-4","properties":{"id":"kalhu-4","siteId":"kalhu","siteName":"Kalḫu","name":"ZTW 4","locationType":"excavation_area","sourceId":4},"geometry":{"type":"Polygon","coordinates":[[[43.32741920387864,36.10081923458706],[43.3274834099027,36.10082049988649],[43.327482365902306,36.100698187514126],[43.32741711587786,36.100698609281245],[43.32741920387864,36.10081923458706]]]}},{"type":"Feature","id":"kalhu-5","properties":{"id":"kalhu-5","siteId":"kalhu","siteName":"Kalḫu","name":"ZTE 25","locationType":"excavation_area","sourceId":5},"geometry":{"type":"Polygon","coordinates":[[[43.32785725979281,36.100257360646694],[43.328098423883155,36.100240068095474],[43.328089549879834,36.10020210882331],[43.32785099579047,36.10022108846168],[43.32785725979281,36.100257360646694]]]}},{"type":"Feature","id":"kalhu-6","properties":{"id":"kalhu-6","siteId":"kalhu","siteName":"Kalḫu","name":"ekal māšarti (Fort Shalmaneser)","locationType":"excavation_area","sourceId":6},"geometry":{"type":"Polygon","coordinates":[[[43.34658969351064,36.095734964725665],[43.34667425754232,36.09571092247706],[43.34666564453909,36.09569299623428],[43.34683372860206,36.095641748247054],[43.346844951606265,36.09565988539861],[43.34692194663511,36.095633101464024],[43.34691463863238,36.095617284175525],[43.3470748926924,36.09556561434425],[43.34708611569661,36.09558564958898],[43.34717041872818,36.09556013101322],[43.34716128372476,36.09554178294123],[43.347321798784904,36.095492432933256],[43.34733145578851,36.095511413709225],[43.34741393181942,36.095486949597124],[43.3474032308154,36.09546670342962],[43.34756244087505,36.0954179860677],[43.34757261987887,36.09543696686165],[43.34765457390956,36.095410604646595],[43.34764569990624,36.09539499821111],[43.34780908596745,36.09534227374399],[43.347822918972625,36.09537327573495],[43.34803171905086,36.09530747557632],[43.348017364045475,36.095277106253754],[43.34817526910464,36.09522627979183],[43.348185187108356,36.09524526063208],[43.34826857663957,36.09521731661566],[43.34826035513649,36.095201393794326],[43.34841643319495,36.09515341441249],[43.348423741197685,36.0951675446071],[43.34850543422828,36.09514160409863],[43.34849603822476,36.0951247322186],[43.348652638283426,36.0950772800366],[43.34866438328782,36.095096682710036],[43.34870327230237,36.09508170890813],[43.34777306795395,36.093359913562274],[43.347599763889036,36.09320300138087],[43.34738730980945,36.09327217775753],[43.34737686980554,36.09325699270445],[43.34735076979576,36.09326648336297],[43.34735651179791,36.09328040299338],[43.34731971078413,36.09329221358695],[43.34732675778677,36.09330465688897],[43.34730979278042,36.093310245829066],[43.347303267777974,36.09330128243438],[43.34725093725837,36.09332047464293],[43.34724167175491,36.09330803134341],[43.347158151723626,36.09333565968374],[43.34714223071766,36.09330634411621],[43.347094206699666,36.093322161869835],[43.34710490770368,36.09334662665584],[43.34708272269537,36.09335379736753],[43.34708742069713,36.093365397046824],[43.347051663683736,36.09337762943404],[43.34705688368569,36.09339260356064],[43.347024780673664,36.09340272691221],[43.34695692064823,36.0932626870997],[43.34698067165712,36.093254250958445],[43.34697127565361,36.09323674596246],[43.34696135764989,36.09324012041982],[43.34695535464764,36.09322936433647],[43.34694700264451,36.09323252789056],[43.34693943364168,36.09321839734802],[43.34695822564871,36.093210593913],[43.34692299063552,36.093144370135924],[43.34690654762936,36.0931498536355],[43.34689349762447,36.093121381614274],[43.34690837463004,36.09311568720879],[43.34688305762055,36.09306275030843],[43.34686557061401,36.093069077429874],[43.34682511559886,36.09297564688481],[43.34650330247831,36.09307287370248],[43.346547150494736,36.09316988949612],[43.34653514449024,36.09318001287638],[43.34654610649435,36.09320658674335],[43.346537232491016,36.09321375746783],[43.34654767249493,36.09323316060136],[43.34652888048789,36.0932403313234],[43.34653984249199,36.09326479613487],[43.34656698650216,36.09325635999385],[43.34659569651292,36.09331077308755],[43.346611878518985,36.09330486779238],[43.34668234854538,36.093450812814375],[43.346609790518194,36.093472746724885],[43.34661292251937,36.093483713677855],[43.3464234364484,36.093541922864105],[43.34641456244508,36.09352378522374],[43.34635923042435,36.09354276647518],[43.346332086414186,36.0934870881246],[43.346315904408115,36.09349257160027],[43.34615878234927,36.09315850069176],[43.346170005353486,36.09315364990422],[43.346143122343406,36.093098182181926],[43.34613137733901,36.09310155664524],[43.346050728308796,36.09292777159633],[43.34589621625092,36.09297206151179],[43.346026716299804,36.093250454694584],[43.345761540200485,36.093336503297024],[43.34575318819734,36.093315412962006],[43.34568115217035,36.093328488970386],[43.345610160143764,36.093212913853215],[43.345578840132035,36.09319224529244],[43.34555221812206,36.09319055806275],[43.345537602116586,36.09319941601822],[43.34555378412265,36.093237800480395],[43.345587714135355,36.09322725530035],[43.345648788158236,36.093373622272914],[43.34562451514915,36.093380792982146],[43.34565087615902,36.0934455402388],[43.34567201716694,36.09344005675985],[43.34573335218992,36.09358969232712],[43.3457119501819,36.093596863016636],[43.345739616192255,36.09366118829039],[43.3457584081993,36.09365591572895],[43.34582809522541,36.09380692174864],[43.34580277821592,36.093816412340736],[43.34583044422628,36.09387926112175],[43.345848453233025,36.09387419947682],[43.34591161525668,36.09403174302249],[43.345890213248666,36.0940384918688],[43.34591840125923,36.09410513669497],[43.34593823726666,36.09409965326204],[43.346002443290715,36.09425572004979],[43.3459799972823,36.09426246887686],[43.346007141292475,36.094324473698485],[43.34602906530068,36.09431941208223],[43.34609588132572,36.094476322034616],[43.34607199981676,36.0944843362442],[43.346097708326376,36.094546129990704],[43.34612054583494,36.09454011933831],[43.34618546960926,36.09469491985331],[43.346161196600164,36.09470187954233],[43.346188797360504,36.094765149414194],[43.34621013411849,36.0947581897308],[43.346278255144,36.09491699689887],[43.34625450413511,36.094925116513046],[43.34628334464591,36.094991338789576],[43.34630331115339,36.09498553907014],[43.34636882217792,36.09514086595394],[43.3463247131614,36.095154996150804],[43.34640092518995,36.09532139484522],[43.34643589920305,36.09531148263881],[43.34649775622622,36.09545341687934],[43.34647531021782,36.095460587398804],[43.34650454222877,36.09552596563432],[43.346526205236884,36.095518795120825],[43.346581928757736,36.0956602017442],[43.346560787749816,36.09566695045067],[43.34658969351064,36.095734964725665]]]}},{"type":"Feature","id":"kalhu-7","properties":{"id":"kalhu-7","siteId":"kalhu","siteName":"Kalḫu","name":"Ezida","locationType":"excavation_area","sourceId":7},"geometry":{"type":"Polygon","coordinates":[[[43.329840468887106,36.09735806364199],[43.329837858886144,36.09737577861246],[43.330684543203276,36.09745507414561],[43.33067723520055,36.09685613781914],[43.33067044919799,36.09668151749545],[43.3303541170795,36.0966899532688],[43.330356205080285,36.09668320465019],[43.32995948493169,36.09666633310113],[43.329840468887106,36.09735806364199]]]}},{"type":"Feature","id":"kalhu-8","properties":{"id":"kalhu-8","siteId":"kalhu","siteName":"Kalḫu","name":"North-West Palace","locationType":"excavation_area","sourceId":8},"geometry":{"type":"Polygon","coordinates":[[[43.32682167675627,36.100426437189974],[43.32692190894992,36.1004205983309],[43.32692220257503,36.10040256772034],[43.32715798353836,36.100388095779934],[43.32715798353836,36.100406363638704],[43.327190869550684,36.10040683812848],[43.327193805801784,36.100385723330426],[43.32725399894934,36.10038216465604],[43.327254292574445,36.10039734833231],[43.32734414185811,36.100389282004656],[43.327345316358546,36.100370776896916],[43.32754145793203,36.10035867740104],[43.32754263243247,36.10037575904173],[43.32761192795843,36.1003719631219],[43.32761368970909,36.10035108555954],[43.32777988152136,36.10033495289391],[43.32778164327202,36.10034776412865],[43.32786385830282,36.10034159575662],[43.32786444555305,36.10032546308904],[43.32804414412037,36.10030980490851],[43.32804708037147,36.10032925901112],[43.32813223165336,36.10032261614736],[43.3281275336516,36.10023483539489],[43.32811109064545,36.10023530988571],[43.3280746811318,36.09998098239668],[43.32809875839083,36.09998098239668],[43.32808576547971,36.09987623814018],[43.328082829228606,36.099826416361026],[43.32805376034271,36.099826416361026],[43.32796068118288,36.099080983873826],[43.328029976708834,36.09907813688705],[43.328032325709714,36.09908240736717],[43.328068147973134,36.099079085882664],[43.32798260519109,36.098366386957395],[43.3273589454575,36.098415102491444],[43.327356204956466,36.098362274605755],[43.32732958294651,36.09812017270312],[43.32709102885715,36.09813788750177],[43.32711556286634,36.09834371629815],[43.32686239277151,36.09836353994474],[43.32686761277347,36.09843946024717],[43.32668595670542,36.09845675319468],[43.32666090069604,36.09902868365592],[43.326824808757436,36.10033280450759],[43.32681071475216,36.10033575689116],[43.32682167675627,36.100426437189974]]]}},{"type":"Feature","id":"kalhu-9","properties":{"id":"kalhu-9","siteId":"kalhu","siteName":"Kalḫu","name":"Burnt Palace","locationType":"excavation_area","sourceId":9},"geometry":{"type":"Polygon","coordinates":[[[43.329481928259106,36.09732620515769],[43.329540653281114,36.09733854237469],[43.329548874784194,36.097292040546655],[43.3297250498502,36.09731671498945],[43.32971213034536,36.097378401062535],[43.32974501635768,36.09737935007867],[43.32979082187484,36.09716297410424],[43.329814311883645,36.09716582116041],[43.32987068790476,36.09687257383374],[43.329883607409606,36.09668846330245],[43.329873036905646,36.09668941232691],[43.329871862405206,36.096566039050586],[43.32971682834712,36.09656319197269],[43.32971565384667,36.096622031561544],[43.32950894176923,36.09663057278852],[43.3294995457657,36.096781467645364],[43.32950072026615,36.09721991520791],[43.329481928259106,36.09732620515769]]]}},{"type":"Feature","id":"kalhu-10","properties":{"id":"kalhu-10","siteId":"kalhu","siteName":"Kalḫu","name":"Southwest Palace","locationType":"excavation_area","sourceId":10},"geometry":{"type":"Polygon","coordinates":[[[43.32709925806658,36.09744114219477],[43.32833718153038,36.09741646779105],[43.3283113425207,36.0969685311149],[43.32789556936492,36.09698181740898],[43.32788852236228,36.09674076572403],[43.327860334351726,36.09646934443783],[43.32706402305338,36.096577533454486],[43.32709925806658,36.09744114219477]]]}},{"type":"Feature","id":"kalhu-11","properties":{"id":"kalhu-11","siteId":"kalhu","siteName":"Kalḫu","name":"Governors Palace","locationType":"excavation_area","sourceId":11},"geometry":{"type":"Polygon","coordinates":[[[43.33004449359597,36.09799831884003],[43.33007268357599,36.09781040177418],[43.330048017343486,36.097796165614504],[43.33005506483848,36.097643838544656],[43.330167824758526,36.0976594983505],[43.33017134850603,36.097631025973904],[43.33003744610097,36.0976096716847],[43.33003920797473,36.097574081189784],[43.33017663412728,36.09759401186893],[43.330185443496035,36.09756269222801],[43.330048017343486,36.09754703240287],[43.330058588585985,36.097505747394365],[43.3297044519621,36.09746303874205],[43.32969564259335,36.09758404652999],[43.32980135501839,36.09761109530417],[43.32978021253338,36.09769224157081],[43.32972207069961,36.097693665188785],[43.32968154760334,36.09787161723135],[43.329741451310866,36.09788442976285],[43.329737927563365,36.0979499160024],[43.33004449359597,36.09799831884003]]]}},{"type":"Feature","id":"kalhu-12","properties":{"id":"kalhu-12","siteId":"kalhu","siteName":"Kalḫu","name":"Central Palace","locationType":"excavation_area","sourceId":12},"geometry":{"type":"Polygon","coordinates":[[[43.32855218652918,36.09861616420693],[43.32875656388425,36.09859908099019],[43.32872485015674,36.09821186041483],[43.3286085664892,36.09821755484888],[43.32861032836295,36.09818054102017],[43.32836190416411,36.0981947771102],[43.3283583804166,36.09823463814856],[43.328287905466574,36.09823748536481],[43.32829495296158,36.09834995032422],[43.32852928217042,36.09834425589977],[43.32855218652918,36.09861616420693]]]}}]}