{"type":"FeatureCollection","features":[{"type":"Feature","id":"nippur-1","properties":{"id":"nippur-1","siteId":"nippur","siteName":"Nippur","name":"Scribal Quarter","locationType":"excavation_area","sourceId":1},"geometry":{"type":"Polygon","coordinates":[[[45.23396166434916,32.12717346890324],[45.234222998262624,32.12717997819123],[45.23443821442665,32.12728412673586],[45.23475335238113,32.12734271023997],[45.234922450795736,32.12732318240945],[45.235276020208076,32.12711488529045],[45.235368255706945,32.12691309700297],[45.23522990245864,32.12661366839912],[45.23511460808504,32.12635980424789],[45.23514535325135,32.1261775423704],[45.23508386291876,32.125936695759584],[45.234922450795736,32.125455000630765],[45.23493013708731,32.12518160496699],[45.23493013708731,32.12488868013252],[45.234776411255865,32.12444603637634],[45.23468417575698,32.12423773268928],[45.23450739105081,32.124107542643394],[45.234222998262624,32.124166128187035],[45.23401546839016,32.12423773268928],[45.233815624809274,32.12438094152522],[45.23359272235366,32.12462179224244],[45.233408251355925,32.12484311396264],[45.2334159376475,32.12512302007532],[45.23340056506436,32.12546801945147],[45.233246839232905,32.12558518875418],[45.23277797544697,32.1258130175232],[45.232470523784066,32.12608641129513],[45.23224762132846,32.126457444389644],[45.23227068020317,32.126782910774224],[45.232508955241926,32.127056301640074],[45.23302393677729,32.12722554319412],[45.23353891831266,32.12722554319412],[45.23396166434916,32.12717346890324]]]}},{"type":"Feature","id":"nippur-2","properties":{"id":"nippur-2","siteId":"nippur","siteName":"Nippur","name":"West Mound","locationType":"excavation_area","sourceId":2},"geometry":{"type":"Polygon","coordinates":[[[45.23324683923289,32.1233263984675],[45.232847152071116,32.122974881406805],[45.23210926808014,32.122740535947436],[45.23146361958804,32.1226494014396],[45.23091020659481,32.12280563196874],[45.2306027549319,32.12298790058134],[45.2299878516061,32.12319620712142],[45.229019378867946,32.12315714968137],[45.22800478838035,32.12267543987969],[45.2277127093006,32.12199843802259],[45.2277127093006,32.12139954757785],[45.22762047380172,32.12087877008345],[45.22738988505454,32.120527243594765],[45.2270363156422,32.11962889197224],[45.22660588331413,32.119121124100204],[45.22643678489953,32.118600333604654],[45.22643678489953,32.118235778489634],[45.22602172515461,32.11736344426803],[45.22565278315913,32.11698586418387],[45.225053252416465,32.11697284415311],[45.224453721673804,32.117467604016376],[45.223808073181694,32.118274838035894],[45.22356211185137,32.119316419769916],[45.22333152310419,32.1209699063595],[45.22391568126371,32.12229788177113],[45.22390030868057,32.12421169469495],[45.22366971993338,32.12492773683144],[45.22357748443453,32.12669178030355],[45.223362268270485,32.127941561680025],[45.223270032771616,32.12885284980798],[45.22357748443453,32.129100197872134],[45.22405403451202,32.129100197872134],[45.22576039124116,32.12929547218594],[45.22674423656245,32.129191325937256],[45.227605101218586,32.12907416126538],[45.22834298520956,32.128735684701425],[45.22886565303649,32.128384188479],[45.22944981119602,32.127772321454096],[45.22978800802521,32.12729063601594],[45.230449029100456,32.12691309700297],[45.23084871626224,32.12639235097341],[45.230971696927405,32.12614499556825],[45.23149436475434,32.12593669575957],[45.23207852291385,32.1255982075563],[45.23235522941049,32.1248951895835],[45.232678053656535,32.12446556482262],[45.232678053656535,32.124088014120495],[45.23295476015315,32.1237364999936],[45.23318534890033,32.12356725196809],[45.23324683923289,32.1233263984675]]]}},{"type":"Feature","id":"nippur-3","properties":{"id":"nippur-3","siteId":"nippur","siteName":"Nippur","name":"TA","locationType":"excavation_area","sourceId":3},"geometry":{"type":"Polygon","coordinates":[[[45.23374836975805,32.12648185440875],[45.233982801651,32.12647859973992],[45.23397127221365,32.1260034168438],[45.233740683466465,32.12600667152959],[45.23374836975805,32.12648185440875]]]}},{"type":"Feature","id":"nippur-4","properties":{"id":"nippur-4","siteId":"nippur","siteName":"Nippur","name":"TB","locationType":"excavation_area","sourceId":4},"geometry":{"type":"Polygon","coordinates":[[[45.23439401825015,32.12663807837644],[45.23444013599958,32.126582749085145],[45.234478567457444,32.126599022409586],[45.234451665436936,32.126628314386295],[45.234493940040586,32.12664784236554],[45.234766803391416,32.12642977969342],[45.234601548122605,32.12631261147525],[45.23455158722739,32.12636468625746],[45.23443244970801,32.12628006472128],[45.234370959375426,32.12632888484788],[45.23434021420913,32.12631912082465],[45.2342940964597,32.12636794093036],[45.23430946904284,32.12639397830938],[45.23425182185605,32.12645256238503],[45.23427872387656,32.126475345070965],[45.2342364492729,32.12654369309461],[45.23439401825015,32.12663807837644]]]}},{"type":"Feature","id":"nippur-5","properties":{"id":"nippur-5","siteId":"nippur","siteName":"Nippur","name":"Inanna Temple","locationType":"excavation_area","sourceId":5},"geometry":{"type":"Polygon","coordinates":[[[45.23205354246627,32.128356524366986],[45.23276836758252,32.127471268353254],[45.23213040538199,32.12711976725963],[45.23143095284888,32.12799200822509],[45.23205354246627,32.128356524366986]]]}},{"type":"Feature","id":"nippur-6","properties":{"id":"nippur-6","siteId":"nippur","siteName":"Nippur","name":"Enlil Temple","locationType":"excavation_area","sourceId":6},"geometry":{"type":"Polygon","coordinates":[[[45.232580053438994,32.129000933269054],[45.23336021203362,32.12945006405461],[45.23388672300634,32.12883169500821],[45.23309503497436,32.12838907038026],[45.232580053438994,32.129000933269054]]]}},{"type":"Feature","id":"nippur-7","properties":{"id":"nippur-7","siteId":"nippur","siteName":"Nippur","name":"SA","locationType":"excavation_area","sourceId":7},"geometry":{"type":"Polygon","coordinates":[[[45.232821210837066,32.12880077644586],[45.23285675993559,32.12875846681726],[45.232722249833074,32.128675474796474],[45.23267228893785,32.128740566583865],[45.23270975960927,32.12876334869848],[45.232733779270426,32.12874544846605],[45.232821210837066,32.12880077644586]]]}},{"type":"Feature","id":"nippur-8","properties":{"id":"nippur-8","siteId":"nippur","siteName":"Nippur","name":"SB","locationType":"excavation_area","sourceId":8},"geometry":{"type":"Polygon","coordinates":[[[45.231968993258974,32.128575396082766],[45.23201895415419,32.128575396082766],[45.232001659998154,32.12837686562662],[45.23197475797766,32.12826783642186],[45.231930561801114,32.12828085484122],[45.231961306967406,32.12842080273201],[45.231968993258974,32.128575396082766]]]}},{"type":"Feature","id":"nippur-9","properties":{"id":"nippur-9","siteId":"nippur","siteName":"Nippur","name":"SD","locationType":"excavation_area","sourceId":9},"geometry":{"type":"Polygon","coordinates":[[[45.23079779458062,32.13036133711515],[45.23081701030955,32.130319028210266],[45.23070555908175,32.13027671928576],[45.23068250020703,32.13031740094431],[45.23079779458062,32.13036133711515]]]}},{"type":"Feature","id":"nippur-10","properties":{"id":"nippur-10","siteId":"nippur","siteName":"Nippur","name":"SE","locationType":"excavation_area","sourceId":10},"geometry":{"type":"Polygon","coordinates":[[[45.22986967487319,32.13102322483228],[45.22992443970065,32.13104397231063],[45.22992011616164,32.131061058465725],[45.229989292785795,32.13108424681397],[45.23002820463688,32.131025665712336],[45.229986410426456,32.13100491822982],[45.2299792045281,32.131015902191734],[45.22989417492758,32.130978068539555],[45.22986967487319,32.13102322483228]]]}},{"type":"Feature","id":"nippur-11","properties":{"id":"nippur-11","siteId":"nippur","siteName":"Nippur","name":"SK","locationType":"excavation_area","sourceId":11},"geometry":{"type":"Polygon","coordinates":[[[45.23120420724753,32.1305802040214],[45.23142182537767,32.1305484724207],[45.23144776661173,32.13052528393628],[45.23144056071338,32.13033245315338],[45.23141173711998,32.130314146412296],[45.23106729517889,32.13045327755238],[45.231045677483834,32.130482568291676],[45.23107450107723,32.13050453633997],[45.23120420724753,32.1305802040214]]]}},{"type":"Feature","id":"nippur-12","properties":{"id":"nippur-12","siteId":"nippur","siteName":"Nippur","name":"WB","locationType":"excavation_area","sourceId":12},"geometry":{"type":"Polygon","coordinates":[[[45.23013341075283,32.12481707614107],[45.23058017645048,32.12481463509491],[45.23058017645048,32.12450218064814],[45.230113234237436,32.12451438592005],[45.23013341075283,32.12481707614107]]]}},{"type":"Feature","id":"nippur-13","properties":{"id":"nippur-13","siteId":"nippur","siteName":"Nippur","name":"WF","locationType":"excavation_area","sourceId":13},"geometry":{"type":"Polygon","coordinates":[[[45.22933211485636,32.12671863125525],[45.22947623282336,32.12672351324562],[45.22948199754203,32.12660146340801],[45.22934364429373,32.126599022409586],[45.22933211485636,32.12671863125525]]]}},{"type":"Feature","id":"nippur-14","properties":{"id":"nippur-14","siteId":"nippur","siteName":"Nippur","name":"North Temple","locationType":"excavation_area","sourceId":14},"geometry":{"type":"Polygon","coordinates":[[[45.22985093953751,32.13138569480463],[45.229989292785824,32.13146136175519],[45.229989292785824,32.131395458285645],[45.23000370458252,32.131310027791294],[45.230072881206674,32.13126609207734],[45.230133410752806,32.13125876945629],[45.23028041107914,32.13114160743953],[45.23040723489008,32.13120018846672],[45.23044182320216,32.13117822058594],[45.23059747060651,32.13104397231064],[45.230257352204426,32.130921928252576],[45.230116116596776,32.13107570373899],[45.23009017536271,32.13105861758663],[45.23007864592536,32.131080585496235],[45.23010458715941,32.131102553400524],[45.22985093953751,32.13138569480463]]]}},{"type":"Feature","id":"nippur-15","properties":{"id":"nippur-15","siteId":"nippur","siteName":"Nippur","name":"House D","locationType":"excavation_area","sourceId":15},"geometry":{"type":"Polygon","coordinates":[[[45.23457368531571,32.12650138241934],[45.234676729662105,32.126415337091316],[45.234582332393735,32.126338445452944],[45.23449586161354,32.126425711355026],[45.23457368531571,32.12650138241934]]]}},{"type":"Feature","id":"nippur-16","properties":{"id":"nippur-16","siteId":"nippur","siteName":"Nippur","name":"House C","locationType":"excavation_area","sourceId":16},"geometry":{"type":"Polygon","coordinates":[[[45.234433890887736,32.12661183765055],[45.234552067620655,32.1265166386747],[45.234455508582776,32.12643242411327],[45.234444699735256,32.126444018876334],[45.23442092027071,32.12642266010111],[45.23431427297513,32.126527012926886],[45.234433890887736,32.12661183765055]]]}},{"type":"Feature","id":"nippur-17","properties":{"id":"nippur-17","siteId":"nippur","siteName":"Nippur","name":"House B","locationType":"excavation_area","sourceId":17},"geometry":{"type":"Polygon","coordinates":[[[45.23431427297513,32.126527012926886],[45.23442092027071,32.12642266010111],[45.23437444222635,32.12637978997291],[45.234330846541326,32.12641396402692],[45.23430634648694,32.12639840262892],[45.234237890452626,32.12646522508394],[45.23431427297513,32.126527012926886]]]}},{"type":"Feature","id":"nippur-18","properties":{"id":"nippur-18","siteId":"nippur","siteName":"Nippur","name":"House I","locationType":"excavation_area","sourceId":18},"geometry":{"type":"Polygon","coordinates":[[[45.234460192416705,32.12662236445432],[45.234581251508985,32.12652838598962],[45.2344270452843,32.126408166643685],[45.234308147961535,32.12650458623322],[45.234460192416705,32.12662236445432]]]}},{"type":"Feature","id":"nippur-19","properties":{"id":"nippur-19","siteId":"nippur","siteName":"Nippur","name":"House F","locationType":"excavation_area","sourceId":19},"geometry":{"type":"Polygon","coordinates":[[[45.23442560410462,32.12629984704658],[45.23437155986701,32.12634195439821],[45.2344270452843,32.126408166643685],[45.23448757483044,32.1264560713259],[45.23454954555624,32.126400538507255],[45.23442560410462,32.12629984704658]]]}},{"type":"Feature","id":"nippur-20","properties":{"id":"nippur-20","siteId":"nippur","siteName":"Nippur","name":"House J","locationType":"excavation_area","sourceId":20},"geometry":{"type":"Polygon","coordinates":[[[45.23446199389131,32.12661595683479],[45.23470771502502,32.12641671015573],[45.23463673692627,32.12635965168511],[45.23463025161776,32.12636453369469],[45.23461115598713,32.12634988766517],[45.234602508909106,32.12635660042899],[45.234598905959935,32.12635354917276],[45.23455567056983,32.12638711298558],[45.234514596949246,32.126355379926515],[45.23432472152773,32.12650412854552],[45.23446199389131,32.12661595683479]]]}}]}