{"type":"FeatureCollection","features":[{"type":"Feature","id":"uruk-dc-xiv-2-dafba03c06","properties":{"id":"uruk-dc-xiv-2-dafba03c06","siteId":"uruk","siteName":"Uruk","name":"Dc XIV/2","locationType":"excavation_area"},"geometry":{"type":"Polygon","coordinates":[[[45.62767937437404,31.326292511098426],[45.62789188845954,31.326290668115107],[45.62789188845954,31.326110055576113],[45.62767937437404,31.32610821258923],[45.62767937437404,31.326292511098426]]]}},{"type":"Feature","id":"uruk-dc-xiv-3-94cf7f8ebf","properties":{"id":"uruk-dc-xiv-3-94cf7f8ebf","siteId":"uruk","siteName":"Uruk","name":"Dc XIV/3","locationType":"excavation_area"},"geometry":{"type":"Polygon","coordinates":[[[45.62767910468612,31.32610982520276],[45.62789161877163,31.326108903709322],[45.62788892189237,31.325927830073976],[45.627678025934436,31.32592921231679],[45.62767910468612,31.32610982520276]]]}},{"type":"Feature","id":"uruk-dc-xiv-3-4-2244468f69","properties":{"id":"uruk-dc-xiv-3-4-2244468f69","siteId":"uruk","siteName":"Uruk","name":"Dc XIV/3-4","locationType":"excavation_area"},"geometry":{"type":"Polygon","coordinates":[[[45.62768018343784,31.32610982520276],[45.62789054001993,31.32610982520276],[45.62788892189237,31.325747677587334],[45.62767694718272,31.32574813833582],[45.62768018343784,31.32610982520276]]]}},{"type":"Feature","id":"uruk-dc-xiv-3-dc-dd-xiv-4-dc-xiv-4-0d53f68b62","properties":{"id":"uruk-dc-xiv-3-dc-dd-xiv-4-dc-xiv-4-0d53f68b62","siteId":"uruk","siteName":"Uruk","name":"Dc XIV/3; Dc/Dd XIV/4; Dc XIV/4","locationType":"excavation_area"},"geometry":{"type":"Polygon","coordinates":[[[45.627679644061985,31.32611120744289],[45.62788892189237,31.326110285949465],[45.62789000064408,31.325927830073976],[45.62810035722615,31.325927830073976],[45.628099278474465,31.32574629534185],[45.6276785653103,31.32574721683883],[45.627679644061985,31.32611120744289]]]}},{"type":"Feature","id":"uruk-dc-xiv-4-3bbb2796a6","properties":{"id":"uruk-dc-xiv-4-3bbb2796a6","siteId":"uruk","siteName":"Uruk","name":"Dc XIV/4","locationType":"excavation_area"},"geometry":{"type":"Polygon","coordinates":[[[45.62767964406198,31.325928751569183],[45.62789054001991,31.325927830073972],[45.62788838251651,31.32574721683883],[45.627677486558575,31.32574813833582],[45.62767964406198,31.325928751569183]]]}},{"type":"Feature","id":"uruk-dc-dd-xiv-4-f02dac4fa0","properties":{"id":"uruk-dc-dd-xiv-4-f02dac4fa0","siteId":"uruk","siteName":"Uruk","name":"Dc-Dd XIV/4","locationType":"excavation_area"},"geometry":{"type":"Polygon","coordinates":[[[45.62767964406198,31.32593013381197],[45.62809981785033,31.325927369326358],[45.62809981785033,31.32574629534185],[45.6276774865586,31.325748599084296],[45.62767964406198,31.32593013381197]]]}},{"type":"Feature","id":"uruk-dd-xiv-3-42114d427e","properties":{"id":"uruk-dd-xiv-3-42114d427e","siteId":"uruk","siteName":"Uruk","name":"Dd XIV/3","locationType":"excavation_area"},"geometry":{"type":"Polygon","coordinates":[[[45.62789054001993,31.32610936445602],[45.62810035722615,31.32610798221586],[45.62810089660201,31.325927830073972],[45.62789000064408,31.325928751569176],[45.62789054001993,31.32610936445602]]]}},{"type":"Feature","id":"uruk-dd-xiv-5-78af74058a","properties":{"id":"uruk-dd-xiv-5-78af74058a","siteId":"uruk","siteName":"Uruk","name":"Dd XIV/5","locationType":"excavation_area"},"geometry":{"type":"Polygon","coordinates":[[[45.62788676438896,31.325567064006563],[45.62788784314067,31.325749059832788],[45.628098739098604,31.325748599084296],[45.62809712097104,31.32556660325719],[45.62788676438896,31.325567064006563]]]}},{"type":"Feature","id":"uruk-de-xiv-2-dd9361265c","properties":{"id":"uruk-de-xiv-2-dd9361265c","siteId":"uruk","siteName":"Uruk","name":"De XIV/2","locationType":"excavation_area"},"geometry":{"type":"Polygon","coordinates":[[[45.62810143597784,31.326288825131765],[45.62831125318408,31.32628698214839],[45.62831179255992,31.32610683034904],[45.62810143597784,31.32610729109578],[45.62810143597784,31.326288825131765]]]}},{"type":"Feature","id":"uruk-de-xiv-3-5b93d84f8c","properties":{"id":"uruk-de-xiv-3-5b93d84f8c","siteId":"uruk","siteName":"Uruk","name":"De XIV/3","locationType":"excavation_area"},"geometry":{"type":"Polygon","coordinates":[[[45.62831044412029,31.32610706072241],[45.62830963505652,31.32592564152282],[45.62809968300634,31.325927369326372],[45.628100896601985,31.326107406282464],[45.62831044412029,31.32610706072241]]]}},{"type":"Feature","id":"uruk-de-xiv-4-e0f06fab9d","properties":{"id":"uruk-de-xiv-4-e0f06fab9d","siteId":"uruk","siteName":"Uruk","name":"De XIV/4","locationType":"excavation_area"},"geometry":{"type":"Polygon","coordinates":[[[45.628100087538215,31.32592771488708],[45.62830963505652,31.32592564152282],[45.628308016928976,31.325745949780476],[45.62809927847444,31.325747332025966],[45.628100087538215,31.32592771488708]]]}},{"type":"Feature","id":"uruk-de-xv-1-b16674629f","properties":{"id":"uruk-de-xv-1-b16674629f","siteId":"uruk","siteName":"Uruk","name":"De XV/1","locationType":"excavation_area"},"geometry":{"type":"Polygon","coordinates":[[[45.62809664901717,31.325566257695158],[45.62830741013115,31.325565912133122],[45.628305792003594,31.325384491890663],[45.6280954354215,31.325385528578742],[45.62809664901717,31.325566257695158]]]}},{"type":"Feature","id":"uruk-de-ea-xiv-5-e59b82a82b","properties":{"id":"uruk-de-ea-xiv-5-e59b82a82b","siteId":"uruk","siteName":"Uruk","name":"De-Ea XIV/5","locationType":"excavation_area"},"geometry":{"type":"Polygon","coordinates":[[[45.628098267144736,31.325748714271437],[45.62851898030891,31.32574525865776],[45.62851898030891,31.325563493198867],[45.628098267144736,31.325566257695165],[45.628098267144736,31.325748714271437]]]}},{"type":"Feature","id":"uruk-ea-xiv-2-df074df548","properties":{"id":"uruk-ea-xiv-2-df074df548","siteId":"uruk","siteName":"Uruk","name":"Ea XIV/2","locationType":"excavation_area"},"geometry":{"type":"Polygon","coordinates":[[[45.628312669045684,31.326287097334895],[45.62852221656401,31.326286406216113],[45.62852140750023,31.326106024042296],[45.628311050918136,31.326106024042296],[45.628312669045684,31.326287097334895]]]}},{"type":"Feature","id":"uruk-ea-xiv-3-a9f9918ac4","properties":{"id":"uruk-ea-xiv-3-a9f9918ac4","siteId":"uruk","siteName":"Uruk","name":"Ea XIV/3","locationType":"excavation_area"},"geometry":{"type":"Polygon","coordinates":[[[45.62831145545003,31.326106024042314],[45.628521002968334,31.326105678482264],[45.628519587106716,31.32592512318178],[45.62830923052464,31.325926332644286],[45.62831145545003,31.326106024042314]]]}},{"type":"Feature","id":"uruk-ea-xiv-4-8293c24d85","properties":{"id":"uruk-ea-xiv-4-8293c24d85","siteId":"uruk","siteName":"Uruk","name":"Ea XIV/4","locationType":"excavation_area"},"geometry":{"type":"Polygon","coordinates":[[[45.62830852259381,31.325926591814824],[45.628519081441844,31.325926073473752],[45.628519081441844,31.325744653925376],[45.628307915795986,31.32574672729362],[45.62830852259381,31.325926591814824]]]}},{"type":"Feature","id":"uruk-eb-xiv-2-300f982778","properties":{"id":"uruk-eb-xiv-2-300f982778","siteId":"uruk","siteName":"Uruk","name":"Eb XIV/2","locationType":"excavation_area"},"geometry":{"type":"Polygon","coordinates":[[[45.62852150863316,31.32628631982628],[45.62873267427903,31.32628476480902],[45.628730853885536,31.326103864291976],[45.628520295037504,31.326105937652304],[45.62852150863316,31.32628631982628]]]}},{"type":"Feature","id":"uruk-eb-xiv-4-7b11e7bcc7","properties":{"id":"uruk-eb-xiv-4-7b11e7bcc7","siteId":"uruk","siteName":"Uruk","name":"Eb XIV/4","locationType":"excavation_area"},"geometry":{"type":"Polygon","coordinates":[[[45.628519688239685,31.325925036791624],[45.62873085388554,31.325924518450545],[45.62872964028988,31.325743617241237],[45.628517867846185,31.325744653925362],[45.628519688239685,31.325925036791624]]]}},{"type":"Feature","id":"uruk-eb-xiv-5-f95da21a5d","properties":{"id":"uruk-eb-xiv-5-f95da21a5d","siteId":"uruk","siteName":"Uruk","name":"Eb XIV/5","locationType":"excavation_area"},"geometry":{"type":"Polygon","coordinates":[[[45.628519081441866,31.325745172267446],[45.628730247087724,31.325744135583317],[45.628726606300724,31.3255627156843],[45.62851847464404,31.3255642707135],[45.628519081441866,31.325745172267446]]]}},{"type":"Feature","id":"uruk-id-xvii-4-8f48bfa4ea","properties":{"id":"uruk-id-xvii-4-8f48bfa4ea","siteId":"uruk","siteName":"Uruk","name":"Id XVII/4","locationType":"excavation_area"},"geometry":{"type":"Polygon","coordinates":[[[45.63312285660039,31.323200596689905],[45.63333644943758,31.323196449841227],[45.63333644943758,31.323013988318472],[45.63312285660039,31.323013988318472],[45.63312285660039,31.323200596689905]]]}},{"type":"Feature","id":"uruk-jd-xvii-4-f246d375b3","properties":{"id":"uruk-jd-xvii-4-f246d375b3","siteId":"uruk","siteName":"Uruk","name":"Jd XVII/4","locationType":"excavation_area"},"geometry":{"type":"Polygon","coordinates":[[[45.63417686443618,31.323190229567867],[45.63438742328421,31.323189192855605],[45.63438620968855,31.32300880474733],[45.63417686443618,31.32300984146159],[45.63417686443618,31.323190229567867]]]}},{"type":"Feature","id":"uruk-k-xvii-44f463f919","properties":{"id":"uruk-k-xvii-44f463f919","siteId":"uruk","siteName":"Uruk","name":"K XVII","locationType":"excavation_area"},"geometry":{"type":"Polygon","coordinates":[[[45.63459919572793,31.323730873459837],[45.635652596765915,31.323726726634515],[45.63564531519191,31.322816494055882],[45.63459434134526,31.32282271435394],[45.63459919572793,31.323730873459837]]]}},{"type":"Feature","id":"uruk-ka-xvii-2-cda71236bf","properties":{"id":"uruk-ka-xvii-2-cda71236bf","siteId":"uruk","siteName":"Uruk","name":"Ka XVII/2","locationType":"excavation_area"},"geometry":{"type":"Polygon","coordinates":[[[45.63459798213228,31.32354944968113],[45.634809754575976,31.32354893132699],[45.63480732738465,31.32336750719766],[45.63459737533445,31.323369062263115],[45.63459798213228,31.32354944968113]]]}},{"type":"Feature","id":"uruk-ka-xvii-5-9329e57f91","properties":{"id":"uruk-ka-xvii-5-9329e57f91","siteId":"uruk","siteName":"Uruk","name":"Ka XVII/5","locationType":"excavation_area"},"geometry":{"type":"Polygon","coordinates":[[[45.63459494814312,31.32300828639022],[45.63480672058682,31.32300724967594],[45.63480490019331,31.322826342860953],[45.63459373454746,31.322826861219077],[45.63459494814312,31.32300828639022]]]}},{"type":"Feature","id":"uruk-ke-xvii-3-269b5ef7d4","properties":{"id":"uruk-ke-xvii-3-269b5ef7d4","siteId":"uruk","siteName":"Uruk","name":"Ke XVII/3","locationType":"excavation_area"},"geometry":{"type":"Polygon","coordinates":[[[45.6354399141255,31.32336491542186],[45.6356498661757,31.323363878711504],[45.63564895597895,31.32318323175986],[45.63543779033309,31.323184527650273],[45.6354399141255,31.32336491542186]]]}},{"type":"Feature","id":"uruk-la-xii-5-63dce822d7","properties":{"id":"uruk-la-xii-5-63dce822d7","siteId":"uruk","siteName":"Uruk","name":"La XII/5","locationType":"excavation_area"},"geometry":{"type":"Polygon","coordinates":[[[45.635678689072755,31.32751451627321],[45.63588864112295,31.32751451627321],[45.63588742752729,31.32733102645274],[45.635676261881436,31.327334136452674],[45.635678689072755,31.32751451627321]]]}},{"type":"Feature","id":"uruk-lc-xviii-2-4d73713310","properties":{"id":"uruk-lc-xviii-2-4d73713310","siteId":"uruk","siteName":"Uruk","name":"Lc XVIII/2","locationType":"excavation_area"},"geometry":{"type":"Polygon","coordinates":[[[45.63606400569667,31.322639992927353],[45.63627577814036,31.322638437849868],[45.63627517134253,31.322458048686375],[45.636062792101,31.322459603766845],[45.63606400569667,31.322639992927353]]]}},{"type":"Feature","id":"uruk-ld-xv-1-c8926fc6ab","properties":{"id":"uruk-ld-xv-1-c8926fc6ab","siteId":"uruk","siteName":"Uruk","name":"Ld XV/1","locationType":"excavation_area"},"geometry":{"type":"Polygon","coordinates":[[[45.63629398207534,31.325526172491006],[45.63650454092336,31.32552565414773],[45.63650393412553,31.32534527051622],[45.63629337527749,31.32534527051622],[45.63629398207534,31.325526172491006]]]}},{"type":"Feature","id":"uruk-le-xvi-3-338df3d655","properties":{"id":"uruk-le-xvi-3-338df3d655","siteId":"uruk","siteName":"Uruk","name":"Le XVI/3","locationType":"excavation_area"},"geometry":{"type":"Polygon","coordinates":[[[45.63628654880187,31.324263220644],[45.63649680425097,31.32426166559332],[45.63649589405423,31.32408127953992],[45.6362838182116,31.324083223356993],[45.63628654880187,31.324263220644]]]}},{"type":"Feature","id":"uruk-md-xv-4-e7d389483b","properties":{"id":"uruk-md-xv-4-e7d389483b","siteId":"uruk","siteName":"Uruk","name":"Md XV/4","locationType":"excavation_area"},"geometry":{"type":"Polygon","coordinates":[[[45.63734214948199,31.32497912437377],[45.63755240493109,31.32497912437377],[45.63755103963598,31.32479718465323],[45.63734146683443,31.32479776779391],[45.63734214948199,31.32497912437377]]]}},{"type":"Feature","id":"uruk-me-xvi-2-d71c443a2a","properties":{"id":"uruk-me-xvi-2-d71c443a2a","siteId":"uruk","siteName":"Uruk","name":"Me XVI/2","locationType":"excavation_area"},"geometry":{"type":"Polygon","coordinates":[[[45.63754933301708,31.32443621987198],[45.63776027111374,31.32443621987198],[45.63775822317107,31.32425559117635],[45.63754677308872,31.32425690325045],[45.63754933301708,31.32443621987198]]]}},{"type":"Feature","id":"uruk-na-xvi-2-7e47541ee4","properties":{"id":"uruk-na-xvi-2-7e47541ee4","siteId":"uruk","siteName":"Uruk","name":"Na XVI/2","locationType":"excavation_area"},"geometry":{"type":"Polygon","coordinates":[[[45.637758735156716,31.324436657229196],[45.637969673253394,31.32443490780041],[45.63796813729638,31.324253841744223],[45.63775771118537,31.324256465892454],[45.637758735156716,31.324436657229196]]]}},{"type":"Feature","id":"uruk-na-xvi-3-75d444aa84","properties":{"id":"uruk-na-xvi-3-75d444aa84","siteId":"uruk","siteName":"Uruk","name":"Na XVI/3","locationType":"excavation_area"},"geometry":{"type":"Polygon","coordinates":[[[45.63775796717822,31.32425602853441],[45.63796839328921,31.324254716460302],[45.63796736931787,31.324074524775316],[45.63775643122121,31.324075399493058],[45.63775796717822,31.32425602853441]]]}},{"type":"Feature","id":"uruk-nb-xvi-3-55a3201cf7","properties":{"id":"uruk-nb-xvi-3-55a3201cf7","siteId":"uruk","siteName":"Uruk","name":"Nb XVI/3","locationType":"excavation_area"},"geometry":{"type":"Polygon","coordinates":[[[45.63796736931787,31.32425515381834],[45.63817779542888,31.32425318570714],[45.63817779542888,31.32407277533978],[45.637966601339386,31.32407408741642],[45.63796736931787,31.32425515381834]]]}},{"type":"Feature","id":"uruk-nb-xvi-3-4-0c4dd2dc5e","properties":{"id":"uruk-nb-xvi-3-4-0c4dd2dc5e","siteId":"uruk","siteName":"Uruk","name":"Nb XVI/3-4","locationType":"excavation_area"},"geometry":{"type":"Polygon","coordinates":[[[45.63796583336087,31.32425515381833],[45.63817702745039,31.324253841744213],[45.638175683487994,31.323892528636577],[45.637965449371606,31.323893676705847],[45.63796583336087,31.32425515381833]]]}},{"type":"Feature","id":"uruk-nb-xvi-4-4f0cb943d3","properties":{"id":"uruk-nb-xvi-4-4f0cb943d3","siteId":"uruk","siteName":"Uruk","name":"Nb XVI/4","locationType":"excavation_area"},"geometry":{"type":"Polygon","coordinates":[[[45.637966025355475,31.32407277533978],[45.63817568348797,31.32407277533978],[45.63817568348797,31.323892692646485],[45.63796564136621,31.323893758710803],[45.637966025355475,31.32407277533978]]]}},{"type":"Feature","id":"uruk-nb-xvi-5-2582899ad6","properties":{"id":"uruk-nb-xvi-5-2582899ad6","siteId":"uruk","siteName":"Uruk","name":"Nb XVI/5","locationType":"excavation_area"},"geometry":{"type":"Polygon","coordinates":[[[45.63796506538237,31.323893184676177],[45.63817625947189,31.323892528636577],[45.63817472351487,31.323712117578097],[45.63796506538237,31.32371342965976],[45.63796506538237,31.323893184676177]]]}},{"type":"Feature","id":"uruk-nc-xvi-1-21c7d9338e","properties":{"id":"uruk-nc-xvi-1-21c7d9338e","siteId":"uruk","siteName":"Uruk","name":"Nc XVI/1","locationType":"excavation_area"},"geometry":{"type":"Polygon","coordinates":[[[45.63818125133217,31.324614497430673],[45.63839090946467,31.324613185361557],[45.63838956550226,31.324432611675107],[45.638179235388584,31.324434087755687],[45.63818125133217,31.324614497430673]]]}},{"type":"Feature","id":"uruk-nc-xvi-2-5a586c3395","properties":{"id":"uruk-nc-xvi-2-5a586c3395","siteId":"uruk","siteName":"Uruk","name":"Nc XVI/2","locationType":"excavation_area"},"geometry":{"type":"Polygon","coordinates":[[[45.638179619377844,31.324434251764647],[45.6383896614996,31.324433267710916],[45.638388509531836,31.324252529670108],[45.638178083420826,31.32425351372572],[45.638179619377844,31.324434251764647]]]}},{"type":"Feature","id":"uruk-nc-xvi-5-71caa5ff8b","properties":{"id":"uruk-nc-xvi-5-71caa5ff8b","siteId":"uruk","siteName":"Uruk","name":"Nc XVI/5","locationType":"excavation_area"},"geometry":{"type":"Polygon","coordinates":[[[45.638175011506846,31.323892364626715],[45.63838620559636,31.323891708587126],[45.63838390166084,31.323710641486198],[45.638173475549834,31.323711953567898],[45.638175011506846,31.323892364626715]]]}},{"type":"Feature","id":"uruk-nc-xvii-1-b992a59109","properties":{"id":"uruk-nc-xvii-1-b992a59109","siteId":"uruk","siteName":"Uruk","name":"Nc XVII/1","locationType":"excavation_area"},"geometry":{"type":"Polygon","coordinates":[[[45.63817462751762,31.32371260960874],[45.63838505362863,31.32371129752706],[45.63838428565012,31.323530886121272],[45.63817462751762,31.323530886121272],[45.63817462751762,31.32371260960874]]]}},{"type":"Feature","id":"uruk-nc-nd-xvi-2-52f14a811b","properties":{"id":"uruk-nc-nd-xvi-2-52f14a811b","siteId":"uruk","siteName":"Uruk","name":"Nc-Nd XVI/2","locationType":"excavation_area"},"geometry":{"type":"Polygon","coordinates":[[[45.6381800033672,31.32443425176467],[45.638600471599965,31.324432283657213],[45.63860162356772,31.324251217595965],[45.63817769943167,31.324253185707203],[45.6381800033672,31.32443425176467]]]}},{"type":"Feature","id":"uruk-nd-xvi-2-dc90de1682","properties":{"id":"uruk-nd-xvi-2-dc90de1682","siteId":"uruk","siteName":"Uruk","name":"Nd XVI/2","locationType":"excavation_area"},"geometry":{"type":"Polygon","coordinates":[[[45.63838980549569,31.324432775684066],[45.63859946362819,31.324432775684066],[45.63859946362819,31.324251217595958],[45.63838865352793,31.32425220165157],[45.63838980549569,31.324432775684066]]]}},{"type":"Feature","id":"uruk-nd-xvi-3-f556a07269","properties":{"id":"uruk-nd-xvi-3-f556a07269","siteId":"uruk","siteName":"Uruk","name":"Nd XVI/3","locationType":"excavation_area"},"geometry":{"type":"Polygon","coordinates":[[[45.638388653527926,31.324251709623766],[45.63859946362819,31.324251709623766],[45.63859773567655,31.324070643215222],[45.63838750156016,31.324071627272737],[45.638388653527926,31.324251709623766]]]}},{"type":"Feature","id":"uruk-nd-xvi-4-77faf1455e","properties":{"id":"uruk-nd-xvi-4-77faf1455e","siteId":"uruk","siteName":"Uruk","name":"Nd XVI/4","locationType":"excavation_area"},"geometry":{"type":"Polygon","coordinates":[[[45.6383869255763,31.324072611330234],[45.63859773567656,31.324071627272737],[45.63859715969269,31.323890068488147],[45.6383869255763,31.323892036606924],[45.6383869255763,31.324072611330234]]]}},{"type":"Feature","id":"uruk-nd-xvi-4-5-ne-xvi-3-5-0aba35bee8","properties":{"id":"uruk-nd-xvi-4-5-ne-xvi-3-5-0aba35bee8","siteId":"uruk","siteName":"Uruk","name":"Nd XVI/4-5, Ne XVI/3-5","locationType":"excavation_area"},"geometry":{"type":"Polygon","coordinates":[[[45.63880912176066,31.324250233540283],[45.63880753780499,31.324070151186444],[45.63859888764427,31.32407082772596],[45.638598311660395,31.323890068488115],[45.638806241841266,31.3238895764584],[45.6388050898735,31.32370900138404],[45.63838404565685,31.323711461537243],[45.63838750156012,31.32389302066627],[45.63838692557625,31.32407310335894],[45.638598311660395,31.324070643215187],[45.63860003961203,31.32425121759592],[45.63880912176066,31.324250233540283]]]}},{"type":"Feature","id":"uruk-nd-xvi-5-eb91c695c2","properties":{"id":"uruk-nd-xvi-5-eb91c695c2","siteId":"uruk","siteName":"Uruk","name":"Nd XVI/5","locationType":"excavation_area"},"geometry":{"type":"Polygon","coordinates":[[[45.63838634959232,31.32389142156977],[45.638598311660346,31.323890929540084],[45.63859485575706,31.323709862437656],[45.63838462164067,31.323712322590836],[45.63838634959232,31.32389142156977]]]}},{"type":"Feature","id":"uruk-nd-xvi-5-nd-xvii-1-a974084fd4","properties":{"id":"uruk-nd-xvi-5-nd-xvii-1-a974084fd4","siteId":"uruk","siteName":"Uruk","name":"Nd XVI/5, Nd XVII/1","locationType":"excavation_area"},"geometry":{"type":"Polygon","coordinates":[[[45.63838634959232,31.323890929540084],[45.63859715969259,31.323889945480683],[45.63859600772482,31.323529779050165],[45.63838289368903,31.32353076311333],[45.63838634959232,31.323890929540084]]]}},{"type":"Feature","id":"uruk-nd-xxiii-ad91408dcb","properties":{"id":"uruk-nd-xxiii-ad91408dcb","siteId":"uruk","siteName":"Uruk","name":"Nd XXIII","locationType":"excavation_area"},"geometry":{"type":"Polygon","coordinates":[[[45.63835063859171,31.318296385682007],[45.63855568885317,31.31829441744625],[45.63855799278869,31.31739296114852],[45.63834603072066,31.31739296114852],[45.63835063859171,31.318296385682007]]]}},{"type":"Feature","id":"uruk-ne-xv-5-4940155233","properties":{"id":"uruk-ne-xv-5-4940155233","siteId":"uruk","siteName":"Uruk","name":"Ne XV/5","locationType":"excavation_area"},"geometry":{"type":"Polygon","coordinates":[[[45.63860302251396,31.32479239011869],[45.63881268064649,31.32479239011869],[45.6388121046626,31.32461132475002],[45.63860014259457,31.324612800827794],[45.63860302251396,31.32479239011869]]]}},{"type":"Feature","id":"uruk-ne-xvi-3-eada40893e","properties":{"id":"uruk-ne-xvi-3-eada40893e","siteId":"uruk","siteName":"Uruk","name":"Ne XVI/3","locationType":"excavation_area"},"geometry":{"type":"Polygon","coordinates":[[[45.63860014259457,31.324251161079225],[45.6388092247432,31.324250669051416],[45.63880807277544,31.324070094669608],[45.63859899062679,31.324070586698365],[45.63860014259457,31.324251161079225]]]}},{"type":"Feature","id":"uruk-ne-xvii-2-3337910981","properties":{"id":"uruk-ne-xvii-2-3337910981","siteId":"uruk","siteName":"Uruk","name":"Ne XVII/2","locationType":"excavation_area"},"geometry":{"type":"Polygon","coordinates":[[[45.638594382755734,31.323529845540914],[45.638805192856026,31.323528369446144],[45.6388028889205,31.323347793678973],[45.6385926548041,31.32334926977658],[45.638594382755734,31.323529845540914]]]}},{"type":"Feature","id":"uruk-oa-xv-3-e753aac2c0","properties":{"id":"uruk-oa-xv-3-e753aac2c0","siteId":"uruk","siteName":"Uruk","name":"Oa XV/3","locationType":"excavation_area"},"geometry":{"type":"Polygon","coordinates":[[[45.638815304838545,31.3251528707173],[45.6390260330822,31.325151889733473],[45.63902402341231,31.324970898043208],[45.63881329516865,31.32497236952175],[45.638815304838545,31.3251528707173]]]}},{"type":"Feature","id":"uruk-oa-xv-4-2948fce78b","properties":{"id":"uruk-oa-xv-4-2948fce78b","siteId":"uruk","siteName":"Uruk","name":"Oa XV/4","locationType":"excavation_area"},"geometry":{"type":"Polygon","coordinates":[[[45.63881444355143,31.32497236952175],[45.63902459760368,31.324970407550342],[45.63902344922088,31.324789906004952],[45.63881214678584,31.32479186798014],[45.63881444355143,31.32497236952175]]]}},{"type":"Feature","id":"uruk-oa-xv-5-87508ab909","properties":{"id":"uruk-oa-xv-5-87508ab909","siteId":"uruk","siteName":"Uruk","name":"Oa XV/5","locationType":"excavation_area"},"geometry":{"type":"Polygon","coordinates":[[[45.63881272097724,31.324792358473907],[45.6390234492209,31.324790396498756],[45.63902143955101,31.3246101398556],[45.638810998403066,31.32461136609242],[45.63881272097724,31.324792358473907]]]}},{"type":"Feature","id":"uruk-oa-xvi-1-1f5d2b1deb","properties":{"id":"uruk-oa-xvi-1-1f5d2b1deb","siteId":"uruk","siteName":"Uruk","name":"Oa XVI/1","locationType":"excavation_area"},"geometry":{"type":"Polygon","coordinates":[[[45.638811285498754,31.32461136609242],[45.6390220137424,31.324610385102975],[45.6390208653596,31.324429392371627],[45.63880956292454,31.324430863858645],[45.638811285498754,31.32461136609242]]]}},{"type":"Feature","id":"uruk-oa-ob-xv-3-10cbdadaea","properties":{"id":"uruk-oa-ob-xv-3-10cbdadaea","siteId":"uruk","siteName":"Uruk","name":"Oa-Ob XV/3","locationType":"excavation_area"},"geometry":{"type":"Polygon","coordinates":[[[45.63881415645574,31.32515188973346],[45.63923561294304,31.32514992776578],[45.63923561294304,31.32496844557887],[45.63881415645574,31.324972369521742],[45.63881415645574,31.32515188973346]]]}},{"type":"Feature","id":"uruk-ob-xv-3-e8548f2733","properties":{"id":"uruk-ob-xv-3-e8548f2733","siteId":"uruk","siteName":"Uruk","name":"Ob XV/3","locationType":"excavation_area"},"geometry":{"type":"Polygon","coordinates":[[[45.63902545889079,31.325151399241552],[45.63923561294305,31.325150418257728],[45.63923446456026,31.32496991705747],[45.639023162125206,31.324970898043208],[45.63902545889079,31.325151399241552]]]}},{"type":"Feature","id":"uruk-ob-xv-3-4-e09bcf106c","properties":{"id":"uruk-ob-xv-3-4-e09bcf106c","siteId":"uruk","siteName":"Uruk","name":"Ob XV/3-4","locationType":"excavation_area"},"geometry":{"type":"Polygon","coordinates":[[[45.63902545889081,31.32515238022539],[45.63923561294306,31.325151399241552],[45.639232167794646,31.32478941551115],[45.639023162125206,31.324790396498766],[45.63902545889081,31.32515238022539]]]}},{"type":"Feature","id":"uruk-ob-xv-4-eb0e3bb772","properties":{"id":"uruk-ob-xv-4-eb0e3bb772","siteId":"uruk","siteName":"Uruk","name":"Ob XV/4","locationType":"excavation_area"},"geometry":{"type":"Polygon","coordinates":[[[45.63902431050803,31.3249708980432],[45.63923561294307,31.32496893607175],[45.639232167794674,31.32478941551115],[45.639022013742434,31.32478941551115],[45.63902431050803,31.3249708980432]]]}},{"type":"Feature","id":"uruk-ob-xv-5-5a4eef0a82","properties":{"id":"uruk-ob-xv-5-5a4eef0a82","siteId":"uruk","siteName":"Uruk","name":"Ob XV/5","locationType":"excavation_area"},"geometry":{"type":"Polygon","coordinates":[[[45.63902287502957,31.324789906004952],[45.639233029081815,31.324790641745658],[45.639233029081815,31.32460891361876],[45.639022013742455,31.324610385102975],[45.63902287502957,31.324789906004952]]]}},{"type":"Feature","id":"uruk-ob-xvi-1-cad7145ac3","properties":{"id":"uruk-ob-xvi-1-cad7145ac3","siteId":"uruk","siteName":"Uruk","name":"Ob XVI/1","locationType":"excavation_area"},"geometry":{"type":"Polygon","coordinates":[[[45.639022013742455,31.324611120845073],[45.6392321677947,31.32460891361876],[45.639230445220505,31.324428656628122],[45.63902029116826,31.324429392371645],[45.639022013742455,31.324611120845073]]]}},{"type":"Feature","id":"uruk-ob-xvi-3-e081949ccc","properties":{"id":"uruk-ob-xvi-3-e081949ccc","siteId":"uruk","siteName":"Uruk","name":"Ob XVI/3","locationType":"excavation_area"},"geometry":{"type":"Polygon","coordinates":[[[45.63901942988117,31.32425060652712],[45.63922958393342,31.3242498707822],[45.639227861359224,31.324068141611438],[45.63901770730698,31.324069613104115],[45.63901942988117,31.32425060652712]]]}},{"type":"Feature","id":"uruk-ob-xvi-4-c194f7e854","properties":{"id":"uruk-ob-xvi-4-c194f7e854","siteId":"uruk","siteName":"Uruk","name":"Ob XVI/4","locationType":"excavation_area"},"geometry":{"type":"Polygon","coordinates":[[[45.63901727666344,31.3240685094846],[45.63922829200278,31.324067773738268],[45.63922743071569,31.323887515711522],[45.63901641537634,31.323888251459266],[45.63901727666344,31.3240685094846]]]}},{"type":"Feature","id":"uruk-oc-xv-3-15edd3c705","properties":{"id":"uruk-oc-xv-3-15edd3c705","siteId":"uruk","siteName":"Uruk","name":"Oc XV/3","locationType":"excavation_area"},"geometry":{"type":"Polygon","coordinates":[[[45.63923518229959,31.32515152186453],[45.63944619763895,31.325150050388782],[45.639444475064735,31.324967587216353],[45.63923518229959,31.324969058694965],[45.63923518229959,31.32515152186453]]]}},{"type":"Feature","id":"uruk-oc-xv-4-22cdf7d9d4","properties":{"id":"uruk-oc-xv-4-22cdf7d9d4","siteId":"uruk","siteName":"Uruk","name":"Oc XV/4","locationType":"excavation_area"},"geometry":{"type":"Polygon","coordinates":[[[45.63923432101248,31.324969794434242],[45.63944533635184,31.32496758721634],[45.63944275249054,31.32478880239389],[45.639231737151185,31.32478880239389],[45.63923432101248,31.324969794434242]]]}},{"type":"Feature","id":"uruk-oc-xv-5-d11ad2dfa4","properties":{"id":"uruk-oc-xv-5-d11ad2dfa4","siteId":"uruk","siteName":"Uruk","name":"Oc XV/5","locationType":"excavation_area"},"geometry":{"type":"Polygon","coordinates":[[[45.639232598438284,31.32478880239389],[45.63944361377764,31.324788066653174],[45.63944189120345,31.3246092814898],[45.639232598438284,31.3246092814898],[45.639232598438284,31.32478880239389]]]}},{"type":"Feature","id":"uruk-oc-xvi-2-c9e326833a","properties":{"id":"uruk-oc-xvi-2-c9e326833a","siteId":"uruk","siteName":"Uruk","name":"Oc XVI/2","locationType":"excavation_area"},"geometry":{"type":"Polygon","coordinates":[[[45.639230014576995,31.324428288756344],[45.639441029916334,31.324427553012814],[45.63944016862925,31.324247295674933],[45.6392291532899,31.32424803141986],[45.639230014576995,31.324428288756344]]]}},{"type":"Feature","id":"uruk-oc-xvi-3-1d29bec0b3","properties":{"id":"uruk-oc-xvi-3-1d29bec0b3","siteId":"uruk","siteName":"Uruk","name":"Oc XVI/3","locationType":"excavation_area"},"geometry":{"type":"Polygon","coordinates":[[[45.63923001457698,31.32424950290973],[45.639441029916334,31.324247295674933],[45.63943844605503,31.324067037991913],[45.63922829200278,31.3240685094846],[45.63923001457698,31.32424950290973]]]}},{"type":"Feature","id":"uruk-od-xiv-5-1b59d36557","properties":{"id":"uruk-od-xiv-5-1b59d36557","siteId":"uruk","siteName":"Uruk","name":"Od XIV/5","locationType":"excavation_area"},"geometry":{"type":"Polygon","coordinates":[[[45.63944964278731,31.325690816181478],[45.63965979683957,31.325690080447814],[45.639658935552454,31.32550908979223],[45.63944705892601,31.32551056126238],[45.63944964278731,31.325690816181478]]]}},{"type":"Feature","id":"uruk-od-xv-3-512736e461","properties":{"id":"uruk-od-xv-3-512736e461","siteId":"uruk","siteName":"Uruk","name":"Od XV/3","locationType":"excavation_area"},"geometry":{"type":"Polygon","coordinates":[[[45.639445336351834,31.32514857891299],[45.63965549040409,31.325147843175078],[45.639654629116976,31.32496758721634],[45.63944361377764,31.324968322955645],[45.639445336351834,31.32514857891299]]]}},{"type":"Feature","id":"uruk-od-xvi-3-28958a824b","properties":{"id":"uruk-od-xvi-3-28958a824b","siteId":"uruk","siteName":"Uruk","name":"Od XVI/3","locationType":"excavation_area"},"geometry":{"type":"Polygon","coordinates":[[[45.63944016862923,31.324247295674926],[45.639650322681476,31.324245824185024],[45.63964860010728,31.324065934372364],[45.63943801541147,31.324066670118725],[45.63944016862923,31.324247295674926]]]}},{"type":"Feature","id":"uruk-od-xvi-4-709c0e728a","properties":{"id":"uruk-od-xvi-4-709c0e728a","siteId":"uruk","siteName":"Uruk","name":"Od XVI/4","locationType":"excavation_area"},"geometry":{"type":"Polygon","coordinates":[[[45.63943844605503,31.324066670118732],[45.639649461394384,31.324065934372378],[45.63964687753308,31.323884940594354],[45.63943758476794,31.323886412089884],[45.63943844605503,31.324066670118732]]]}},{"type":"Feature","id":"uruk-od-xvii-1-2-c5e4736037","properties":{"id":"uruk-od-xvii-1-2-c5e4736037","siteId":"uruk","siteName":"Uruk","name":"Od XVII/1-2","locationType":"excavation_area"},"geometry":{"type":"Polygon","coordinates":[[[45.639435862193714,31.32370615371587],[45.639646016245955,31.323704682217517],[45.639644293671765,31.323344164428526],[45.63943327833241,31.323344900180512],[45.639435862193714,31.32370615371587]]]}},{"type":"Feature","id":"uruk-oe-xiv-8a5b69cfbd","properties":{"id":"uruk-oe-xiv-8a5b69cfbd","siteId":"uruk","siteName":"Uruk","name":"Oe XIV","locationType":"excavation_area"},"geometry":{"type":"Polygon","coordinates":[[[45.63966238070085,31.326412935998423],[45.63987597990149,31.32640999308632],[45.63986822831759,31.325509457659752],[45.63965807426534,31.325509457659752],[45.63966238070085,31.326412935998423]]]}},{"type":"Feature","id":"uruk-oe-xiv-4-a24b1527e2","properties":{"id":"uruk-oe-xiv-4-a24b1527e2","siteId":"uruk","siteName":"Uruk","name":"Oe XIV/4","locationType":"excavation_area"},"geometry":{"type":"Polygon","coordinates":[[[45.63966065812666,31.325870702889294],[45.639871673466,31.325868495692497],[45.63986952024823,31.325688608980464],[45.639659366195986,31.325690080447803],[45.63966065812666,31.325870702889294]]]}},{"type":"Feature","id":"uruk-oe-xiv-5-4c9f2404fe","properties":{"id":"uruk-oe-xiv-5-4c9f2404fe","siteId":"uruk","siteName":"Uruk","name":"Oe XIV/5","locationType":"excavation_area"},"geometry":{"type":"Polygon","coordinates":[[[45.639659366196014,31.325690080447803],[45.63986952024826,31.325688608980464],[45.63986822831762,31.325508354057142],[45.6396585049089,31.32550908979223],[45.639659366196014,31.325690080447803]]]}},{"type":"Feature","id":"uruk-oe-pa-xvii-2-402371ebf2","properties":{"id":"uruk-oe-pa-xvii-2-402371ebf2","siteId":"uruk","siteName":"Uruk","name":"Oe-Pa XVII/2","locationType":"excavation_area"},"geometry":{"type":"Polygon","coordinates":[[[45.639644724315325,31.323524423495595],[45.64006589370691,31.32352221624378],[45.64006503241983,31.32334122142049],[45.63964300174113,31.323344900180523],[45.639644724315325,31.323524423495595]]]}},{"type":"Feature","id":"uruk-p-vi-2-433655cc09","properties":{"id":"uruk-p-vi-2-433655cc09","siteId":"uruk","siteName":"Uruk","name":"P VI/2","locationType":"excavation_area"},"geometry":{"type":"Polygon","coordinates":[[[45.639922058761336,31.333447704402815],[45.64097315200523,31.33344255469148],[45.64097186007459,31.333261946779455],[45.63992071300032,31.333267326398957],[45.639922058761336,31.333447704402815]]]}},{"type":"Feature","id":"uruk-p-vi-3-2b668d506f","properties":{"id":"uruk-p-vi-3-2b668d506f","siteId":"uruk","siteName":"Uruk","name":"P VI/3","locationType":"excavation_area"},"geometry":{"type":"Polygon","coordinates":[[[45.63992119747432,31.33326663670417],[45.640972506039915,31.333261670901525],[45.64097153709193,31.333082074196724],[45.63991950181533,31.33308683310001],[45.63992119747432,31.33326663670417]]]}},{"type":"Feature","id":"uruk-pa-xvi-2-b4cdc9224d","properties":{"id":"uruk-pa-xvi-2-b4cdc9224d","siteId":"uruk","siteName":"Uruk","name":"Pa XVI/2","locationType":"excavation_area"},"geometry":{"type":"Polygon","coordinates":[[[45.63986063822515,31.32442523082299],[45.64007065770127,31.32442461003938],[45.640069930990286,31.324243961831357],[45.639859911514165,31.324244582616174],[45.63986063822515,31.32442523082299]]]}},{"type":"Feature","id":"uruk-pa-xvi-4-018f6890c6","properties":{"id":"uruk-pa-xvi-4-018f6890c6","siteId":"uruk","siteName":"Uruk","name":"Pa XVI/4","locationType":"excavation_area"},"geometry":{"type":"Polygon","coordinates":[[[45.63985845809219,31.324064554848725],[45.64006884092381,31.324063623669726],[45.64006775085732,31.323883285162637],[45.63985700467021,31.323883905949828],[45.63985845809219,31.324064554848725]]]}},{"type":"Feature","id":"uruk-pb-xvi-1-6f764f25f7","properties":{"id":"uruk-pb-xvi-1-6f764f25f7","siteId":"uruk","siteName":"Uruk","name":"Pb XVI/1","locationType":"excavation_area"},"geometry":{"type":"Polygon","coordinates":[[[45.64007283783423,31.32460463711833],[45.640282857310346,31.324605257900753],[45.64028140388835,31.32442274768849],[45.64007211112324,31.32442398925576],[45.64007283783423,31.32460463711833]]]}},{"type":"Feature","id":"uruk-pb-xvi-3-71ded26223","properties":{"id":"uruk-pb-xvi-3-71ded26223","siteId":"uruk","siteName":"Uruk","name":"Pb XVI/3","locationType":"excavation_area"},"geometry":{"type":"Polygon","coordinates":[[[45.640070657701266,31.324243961831375],[45.640279950466386,31.32424272026173],[45.6402792237554,31.324062071704706],[45.64006847756829,31.32406331327673],[45.640070657701266,31.324243961831375]]]}},{"type":"Feature","id":"uruk-pc-xvii-4-82412c9712","properties":{"id":"uruk-pc-xvii-4-82412c9712","siteId":"uruk","siteName":"Uruk","name":"Pc XVII/4","locationType":"excavation_area"},"geometry":{"type":"Polygon","coordinates":[[[45.6402726833565,31.323160065304037],[45.64048488296559,31.3231588237201],[45.64048197612161,31.32297879387645],[45.640271229934505,31.32298003546277],[45.6402726833565,31.323160065304037]]]}},{"type":"Feature","id":"uruk-pd-xvi-4-1385ad6fda","properties":{"id":"uruk-pd-xvi-4-1385ad6fda","siteId":"uruk","siteName":"Uruk","name":"Pd XVI/4","locationType":"excavation_area"},"geometry":{"type":"Polygon","coordinates":[[[45.640493603497426,31.32460339555345],[45.640703622973554,31.324601533206092],[45.64070216955158,31.32442088533756],[45.64049142336448,31.324422126904864],[45.640493603497426,31.32460339555345]]]}},{"type":"Feature","id":"uruk-pd-xvi-2-efc0ae16ef","properties":{"id":"uruk-pd-xvi-2-efc0ae16ef","siteId":"uruk","siteName":"Uruk","name":"Pd XVI/2","locationType":"excavation_area"},"geometry":{"type":"Polygon","coordinates":[[[45.64049142336448,31.32442212690487],[45.64070216955158,31.32442212690487],[45.64070071612961,31.324240857907256],[45.64049069665349,31.324240857907256],[45.64049142336448,31.32442212690487]]]}},{"type":"Feature","id":"uruk-pd-xvi-3-15408c4a6e","properties":{"id":"uruk-pd-xvi-3-15408c4a6e","siteId":"uruk","siteName":"Uruk","name":"Pd XVI/3","locationType":"excavation_area"},"geometry":{"type":"Polygon","coordinates":[[[45.64048996994253,31.32424209947691],[45.640700716129636,31.324240857907263],[45.64069998941866,31.32405958856063],[45.64048924323155,31.32406083013268],[45.64048996994253,31.32424209947691]]]}},{"type":"Feature","id":"uruk-pd-xvi-4-2d78641f41","properties":{"id":"uruk-pd-xvi-4-2d78641f41","siteId":"uruk","siteName":"Uruk","name":"Pd XVI/4","locationType":"excavation_area"},"geometry":{"type":"Polygon","coordinates":[[[45.64048924323155,31.3240614509187],[45.64069926270767,31.324060209346662],[45.64069780928568,31.323879560439426],[45.640487789809576,31.323881422801065],[45.64048924323155,31.3240614509187]]]}},{"type":"Feature","id":"uruk-pe-xiv-4-881468fff3","properties":{"id":"uruk-pe-xiv-4-881468fff3","siteId":"uruk","siteName":"Uruk","name":"Pe XIV/4","locationType":"excavation_area"},"geometry":{"type":"Polygon","coordinates":[[[45.640711616794526,31.325864817031704],[45.64092163627065,31.325863575483453],[45.640920909559654,31.32568293003662],[45.640709436661545,31.325684171587273],[45.640711616794526,31.325864817031704]]]}},{"type":"Feature","id":"uruk-pe-xiv-5-177ea65b99","properties":{"id":"uruk-pe-xiv-5-177ea65b99","siteId":"uruk","siteName":"Uruk","name":"Pe XIV/5","locationType":"excavation_area"},"geometry":{"type":"Polygon","coordinates":[[[45.64071016337253,31.325684792362598],[45.64092090955965,31.32568355081196],[45.64091945613767,31.325502284243175],[45.64070870995056,31.3255041465727],[45.64071016337253,31.325684792362598]]]}},{"type":"Feature","id":"uruk-pe-xvi-3-ee795f27a2","properties":{"id":"uruk-pe-xvi-3-ee795f27a2","siteId":"uruk","siteName":"Uruk","name":"Pe XVI/3","locationType":"excavation_area"},"geometry":{"type":"Polygon","coordinates":[[[45.64070107948518,31.32424147869211],[45.640911462316794,31.32423868516033],[45.640911462316794,31.32405989895366],[45.6406999894187,31.324060830132705],[45.64070107948518,31.32424147869211]]]}},{"type":"Feature","id":"uruk-pe-qa-xvi-4-c04f87c9d5","properties":{"id":"uruk-pe-qa-xvi-4-c04f87c9d5","siteId":"uruk","siteName":"Uruk","name":"Pe-Qa XVI/4","locationType":"excavation_area"},"geometry":{"type":"Polygon","coordinates":[[[45.64070107948518,31.32405989895366],[45.641121845148405,31.324058036595545],[45.641120755081914,31.32387738768415],[45.64069889935221,31.32387925004582],[45.64070107948518,31.32405989895366]]]}},{"type":"Feature","id":"uruk-qa-xiv-b1f972958a","properties":{"id":"uruk-qa-xiv-b1f972958a","siteId":"uruk","siteName":"Uruk","name":"Qa XIV","locationType":"excavation_area"},"geometry":{"type":"Polygon","coordinates":[[[45.640925633181084,31.326406440899905],[45.64113710607919,31.326406440899905],[45.64112947561381,31.32550181866078],[45.6409190927822,31.32550274982556],[45.640925633181084,31.326406440899905]]]}},{"type":"Feature","id":"uruk-qa-xiv-4-aa7de192a3","properties":{"id":"uruk-qa-xiv-4-aa7de192a3","siteId":"uruk","siteName":"Uruk","name":"Qa XIV/4","locationType":"excavation_area"},"geometry":{"type":"Polygon","coordinates":[[[45.640922362981655,31.325863808273755],[45.641132745813266,31.325862877112545],[45.64113056568029,31.325682231664388],[45.64092127291517,31.325683162827378],[45.640922362981655,31.325863808273755]]]}},{"type":"Feature","id":"uruk-qa-xiv-5-9abf65c7c6","properties":{"id":"uruk-qa-xiv-5-9abf65c7c6","siteId":"uruk","siteName":"Uruk","name":"Qa XIV/5","locationType":"excavation_area"},"geometry":{"type":"Polygon","coordinates":[[[45.64092127291518,31.325682697245888],[45.64113165574679,31.325681766082884],[45.64112838554733,31.325501120287193],[45.640919092782205,31.325502982616744],[45.64092127291518,31.325682697245888]]]}},{"type":"Feature","id":"uruk-qa-xxv-3-904591d102","properties":{"id":"uruk-qa-xxv-3-904591d102","siteId":"uruk","siteName":"Uruk","name":"Qa XXV/3","locationType":"excavation_area"},"geometry":{"type":"Polygon","coordinates":[[[45.640855868926074,31.316119633244476],[45.641066251757685,31.316119167615685],[45.64106461665798,31.315938503472815],[45.640854778859605,31.31593943473218],[45.640855868926074,31.316119633244476]]]}},{"type":"Feature","id":"uruk-qb-xiv-d471d53d69","properties":{"id":"uruk-qb-xiv-d471d53d69","siteId":"uruk","siteName":"Uruk","name":"Qb XIV","locationType":"excavation_area"},"geometry":{"type":"Polygon","coordinates":[[[45.64113765111242,31.3264038802213],[45.64134694387756,31.32640248348751],[45.64133999470373,31.325500887495988],[45.64112947561381,31.32550176046296],[45.64113765111242,31.3264038802213]]]}},{"type":"Feature","id":"uruk-qb-xiv-3-c2ad7ab28c","properties":{"id":"uruk-qb-xiv-3-c2ad7ab28c","siteId":"uruk","siteName":"Uruk","name":"Qb XIV/3","locationType":"excavation_area"},"geometry":{"type":"Polygon","coordinates":[[[45.641133427104826,31.326044627965832],[45.641344900002935,31.326041834487555],[45.64134271986996,31.32586025822157],[45.64113233703834,31.32586398286645],[45.641133427104826,31.326044627965832]]]}},{"type":"Feature","id":"uruk-qb-xiv-4-7d11674708","properties":{"id":"uruk-qb-xiv-4-7d11674708","siteId":"uruk","siteName":"Uruk","name":"Qb XIV/4","locationType":"excavation_area"},"geometry":{"type":"Polygon","coordinates":[[[45.64113233703838,31.32586398286645],[45.64134271986998,31.32586025822158],[45.64134053973701,31.32568054393141],[45.6411301569054,31.32568240625743],[45.64113233703838,31.32586398286645]]]}},{"type":"Feature","id":"uruk-qb-xiv-5-7bc0fd8a9a","properties":{"id":"uruk-qb-xiv-5-7bc0fd8a9a","siteId":"uruk","siteName":"Uruk","name":"Qb XIV/5","locationType":"excavation_area"},"geometry":{"type":"Polygon","coordinates":[[[45.64113124697189,31.32568240625743],[45.641342719869975,31.325679612768404],[45.641339449670525,31.32550082929818],[45.641129066838914,31.32550269162774],[45.64113124697189,31.32568240625743]]]}},{"type":"Feature","id":"uruk-qb-xv-1-15b77e6403","properties":{"id":"uruk-qb-xv-1-15b77e6403","siteId":"uruk","siteName":"Uruk","name":"Qb XV/1","locationType":"excavation_area"},"geometry":{"type":"Polygon","coordinates":[[[45.6411301569054,31.325501294880578],[45.64133944967053,31.325501294880578],[45.64133944967053,31.325319717572],[45.64112906683892,31.325322511071715],[45.6411301569054,31.325501294880578]]]}},{"type":"Feature","id":"uruk-qc-xiv-5-7b14ab71da","properties":{"id":"uruk-qc-xiv-5-7b14ab71da","siteId":"uruk","siteName":"Uruk","name":"Qc XIV/5","locationType":"excavation_area"},"geometry":{"type":"Polygon","coordinates":[[[45.641341629803506,31.32568100951293],[45.64155146760187,31.325680078349926],[45.64155037753539,31.325499898133383],[45.64133944967055,31.325501294880578],[45.641341629803506,31.32568100951293]]]}},{"type":"Feature","id":"uruk-qc-xv-1-2060949bda","properties":{"id":"uruk-qc-xv-1-2060949bda","siteId":"uruk","siteName":"Uruk","name":"Qc XV/1","locationType":"excavation_area"},"geometry":{"type":"Polygon","coordinates":[[[45.64134053973705,31.325501294880585],[45.64155092256866,31.3255003637158],[45.64154983250217,31.325319717572015],[45.64133944967056,31.325319717572015],[45.64134053973705,31.325501294880585]]]}},{"type":"Feature","id":"uruk-qd-xiv-5-99fb13067f","properties":{"id":"uruk-qd-xiv-5-99fb13067f","siteId":"uruk","siteName":"Uruk","name":"Qd XIV/5","locationType":"excavation_area"},"geometry":{"type":"Polygon","coordinates":[[[45.64155201263516,31.325680078349933],[45.64176130540029,31.325679147186914],[45.64176021533378,31.325498501386196],[45.641550922568676,31.32549943255101],[45.64155201263516,31.325680078349933]]]}},{"type":"Feature","id":"uruk-qd-xv-1-1328e83899","properties":{"id":"uruk-qd-xv-1-1328e83899","siteId":"uruk","siteName":"Uruk","name":"Qd XV/1","locationType":"excavation_area"},"geometry":{"type":"Polygon","coordinates":[[[45.641550922568676,31.32549943255101],[45.64175912526731,31.325498501386203],[45.64176021533381,31.325317855238843],[45.64154983250219,31.325318786405436],[45.641550922568676,31.32549943255101]]]}},{"type":"Feature","id":"uruk-qd-xv-4-dd33bfd7b2","properties":{"id":"uruk-qd-xv-4-dd33bfd7b2","siteId":"uruk","siteName":"Uruk","name":"Qd XV/4","locationType":"excavation_area"},"geometry":{"type":"Polygon","coordinates":[[[45.64154656230274,31.324958889829613],[45.6417564001011,31.324957493074375],[45.6417551737763,31.32477707868188],[45.641544995332175,31.324778126250315],[45.64154656230274,31.324958889829613]]]}},{"type":"Feature","id":"uruk-qd-xvi-a428aa359f","properties":{"id":"uruk-qd-xvi-a428aa359f","siteId":"uruk","siteName":"Uruk","name":"Qd XVI","locationType":"excavation_area"},"geometry":{"type":"Polygon","coordinates":[[[45.64154404152398,31.3245978279108],[45.64175442435558,31.324595965563354],[45.64174897402316,31.323692722701082],[45.64153750112509,31.323695516249057],[45.64154404152398,31.3245978279108]]]}},{"type":"Feature","id":"uruk-qd-xxv-1-80b6d042db","properties":{"id":"uruk-qd-xxv-1-80b6d042db","siteId":"uruk","siteName":"Uruk","name":"Qd XXV/1","locationType":"excavation_area"},"geometry":{"type":"Polygon","coordinates":[[[45.64148867303547,31.316478162183987],[45.64170059573793,31.316477327863446],[45.641698642533306,31.316295445812706],[45.64148769643316,31.31629711445698],[45.64148867303547,31.316478162183987]]]}},{"type":"Feature","id":"uruk-qd-xxv-5-4eea5fe3ee","properties":{"id":"uruk-qd-xxv-5-4eea5fe3ee","siteId":"uruk","siteName":"Uruk","name":"Qd XXV/5","locationType":"excavation_area"},"geometry":{"type":"Polygon","coordinates":[[[45.64148379002388,31.315754803514544],[45.64169473612403,31.31575396918761],[45.641692782919385,31.315573754396897],[45.64148183681925,31.315574588725433],[45.64148379002388,31.315754803514544]]]}},{"type":"Feature","id":"uruk-qe-xiv-4-f4673caa72","properties":{"id":"uruk-qe-xiv-4-f4673caa72","siteId":"uruk","siteName":"Uruk","name":"Qe XIV/4","locationType":"excavation_area"},"geometry":{"type":"Polygon","coordinates":[[[45.64176309828607,31.3258587948445],[45.64197306778391,31.32585796060709],[45.64197209118158,31.325676930914934],[45.641761145081446,31.32567943363196],[45.64176309828607,31.3258587948445]]]}},{"type":"Feature","id":"uruk-qe-xiv-5-3bbb937eb7","properties":{"id":"uruk-qe-xiv-5-3bbb937eb7","siteId":"uruk","siteName":"Uruk","name":"Qe XIV/5","locationType":"excavation_area"},"geometry":{"type":"Polygon","coordinates":[[[45.64176114508145,31.325679016512453],[45.6419720911816,31.325677765153948],[45.641970626278116,31.325497569355907],[45.641759680177984,31.325498820716806],[45.64176114508145,31.325679016512453]]]}},{"type":"Feature","id":"uruk-qe-xv-1-1e32b9a1cd","properties":{"id":"uruk-qe-xv-1-1e32b9a1cd","siteId":"uruk","siteName":"Uruk","name":"Qe XV/1","locationType":"excavation_area"},"geometry":{"type":"Polygon","coordinates":[[[45.64176053470499,31.32549892499689],[45.64197050420281,31.32549725651569],[45.64196855099817,31.32531706037213],[45.64175858150035,31.325318728856523],[45.64176053470499,31.32549892499689]]]}},{"type":"Feature","id":"uruk-qe-xvi-151cc7a1fd","properties":{"id":"uruk-qe-xvi-151cc7a1fd","siteId":"uruk","siteName":"Uruk","name":"Qe XVI","locationType":"excavation_area"},"geometry":{"type":"Polygon","coordinates":[[[45.64175467509109,31.324596272348757],[45.64196464458891,31.324595438100154],[45.641958022004474,31.32369329819968],[45.641747808356065,31.323694419231952],[45.64175467509109,31.324596272348757]]]}},{"type":"Feature","id":"uruk-r-vii-6debffe757","properties":{"id":"uruk-r-vii-6debffe757","siteId":"uruk","siteName":"Uruk","name":"R VII","locationType":"excavation_area"},"geometry":{"type":"Polygon","coordinates":[[[45.64201991417624,31.332713865018594],[45.643071714870004,31.332708859958572],[45.643064253017926,31.331807983919813],[45.642013184775905,31.331813223642182],[45.64201991417624,31.332713865018594]]]}},{"type":"Feature","id":"uruk-t-xiii-2723e84133","properties":{"id":"uruk-t-xiii-2723e84133","siteId":"uruk","siteName":"Uruk","name":"T XIII","locationType":"excavation_area"},"geometry":{"type":"Polygon","coordinates":[[[45.64408442095233,31.327291938619165],[45.64513915145304,31.327286307602243],[45.645129675358696,31.32638428473205],[45.64407844689284,31.32638938789005],[45.64408442095233,31.327291938619165]]]}},{"type":"Feature","id":"uruk-u-xvi-b3028165fd","properties":{"id":"uruk-u-xvi-b3028165fd","siteId":"uruk","siteName":"Uruk","name":"U XVI","locationType":"excavation_area"},"geometry":{"type":"Polygon","coordinates":[[[45.64511710923353,31.324577221498235],[45.64616854370139,31.324574405908628],[45.64616524766858,31.323673412909702],[45.645113813200716,31.32367622852625],[45.64511710923353,31.324577221498235]]]}},{"type":"Feature","id":"uruk-u-xviii-b3cfa0e20d","properties":{"id":"uruk-u-xviii-b3cfa0e20d","siteId":"uruk","siteName":"Uruk","name":"U XVIII","locationType":"excavation_area"},"geometry":{"type":"Polygon","coordinates":[[[45.64510722113509,31.32277522693165],[45.64615535957014,31.322769595644587],[45.64614959151271,31.321867881455987],[45.64509877505102,31.321872984858796],[45.64510722113509,31.32277522693165]]]}},{"type":"Feature","id":"uruk-ub-xviii-4-0cc64d221f","properties":{"id":"uruk-ub-xviii-4-0cc64d221f","siteId":"uruk","siteName":"Uruk","name":"Ub XVIII/4","locationType":"excavation_area"},"geometry":{"type":"Polygon","coordinates":[[[45.64531157516957,31.32223286204882],[45.64552231526765,31.32223180617644],[45.64552046124919,31.322051251824618],[45.645309721151115,31.322052307699018],[45.64531157516957,31.32223286204882]]]}},{"type":"Feature","id":"uruk-ud-viii-4-6680d46154","properties":{"id":"uruk-ud-viii-4-6680d46154","siteId":"uruk","siteName":"Uruk","name":"Ud VIII/4","locationType":"excavation_area"},"geometry":{"type":"Polygon","coordinates":[[[45.64579361996873,31.33125274765646],[45.646003742060664,31.331252219770864],[45.646002506048355,31.331071682719443],[45.64579238395642,31.331072738492686],[45.64579361996873,31.33125274765646]]]}},{"type":"Feature","id":"uruk-ue-xiii-1-c04d33ff10","properties":{"id":"uruk-ue-xiii-1-c04d33ff10","siteId":"uruk","siteName":"Uruk","name":"Ue XIII/1","locationType":"excavation_area"},"geometry":{"type":"Polygon","coordinates":[[[45.64597593178378,31.32728190837],[45.6461860538757,31.32728190837],[45.6461860538757,31.327100307885523],[45.64597469577148,31.327100307885523],[45.64597593178378,31.32728190837]]]}},{"type":"Feature","id":"uruk-ue-xv-4-ceb3545df7","properties":{"id":"uruk-ue-xv-4-ceb3545df7","siteId":"uruk","siteName":"Uruk","name":"Ue XV/4","locationType":"excavation_area"},"geometry":{"type":"Polygon","coordinates":[[[45.645959863623794,31.324935856535852],[45.64616998571574,31.324934800693793],[45.64616998571574,31.324753195681495],[45.645958627611506,31.32475636321379],[45.645959863623794,31.324935856535852]]]}},{"type":"Feature","id":"uruk-ue-xvii-78b8b0f7c3","properties":{"id":"uruk-ue-xvii-78b8b0f7c3","siteId":"uruk","siteName":"Uruk","name":"Ue XVII","locationType":"excavation_area"},"geometry":{"type":"Polygon","coordinates":[[[45.64595244754994,31.323673060957567],[45.64616195163572,31.323672269065405],[45.646156389580355,31.32276924368908],[45.64594626748842,31.322771355421782],[45.64595244754994,31.323673060957567]]]}},{"type":"Feature","id":"uruk-ue-xviii-1-ba03bea5c2","properties":{"id":"uruk-ue-xviii-1-ba03bea5c2","siteId":"uruk","siteName":"Uruk","name":"Ue XVIII/1","locationType":"excavation_area"},"geometry":{"type":"Polygon","coordinates":[[[45.64594781250379,31.32277056352201],[45.64615669858341,31.322769507655664],[45.6461554625711,31.322587898466583],[45.64594534047919,31.322588954334968],[45.64594781250379,31.32277056352201]]]}},{"type":"Feature","id":"uruk-ue-xviii-2-cf5e338c30","properties":{"id":"uruk-ue-xviii-2-cf5e338c30","siteId":"uruk","siteName":"Uruk","name":"Ue XVIII/2","locationType":"excavation_area"},"geometry":{"type":"Polygon","coordinates":[[[45.64594534047916,31.32259001020334],[45.64615422655879,31.322588954334968],[45.64615299054649,31.32240945653844],[45.6459422504484,31.32240945653844],[45.64594534047916,31.32259001020334]]]}},{"type":"Feature","id":"uruk-va-xviii-1-e981ea4798","properties":{"id":"uruk-va-xviii-1-e981ea4798","siteId":"uruk","siteName":"Uruk","name":"Va XVIII/1","locationType":"excavation_area"},"geometry":{"type":"Polygon","coordinates":[[[45.64615608057723,31.322770563522006],[45.64636682067532,31.322768451789276],[45.64636496665686,31.32258842640075],[45.64615422655877,31.32258948226914],[45.64615608057723,31.322770563522006]]]}},{"type":"Feature","id":"uruk-vb-xviii-1-80bd715bec","properties":{"id":"uruk-vb-xviii-1-80bd715bec","siteId":"uruk","siteName":"Uruk","name":"Vb XVIII/1","locationType":"excavation_area"},"geometry":{"type":"Polygon","coordinates":[[[45.64636643442141,31.32276871575585],[45.64657655651332,31.32276765988947],[45.64657470249485,31.32258710656526],[45.64636458040295,31.322588162433654],[45.64636643442141,31.32276871575585]]]}},{"type":"Feature","id":"uruk-vc-xviii-1-47c47bb920","properties":{"id":"uruk-vc-xviii-1-47c47bb920","siteId":"uruk","siteName":"Uruk","name":"Vc XVIII/1","locationType":"excavation_area"},"geometry":{"type":"Polygon","coordinates":[[[45.64657655651332,31.322768187822664],[45.646787914617526,31.322767131956283],[45.646785442592915,31.32258657863105],[45.64657408448869,31.32258657863105],[45.64657655651332,31.322768187822664]]]}}]}